"SeqNo";"Type";"DHID";"Parent";"Name";"Latitude";"Longitude";"MunicipalityCode";"Municipality";"DistrictCode";"District";"Condition";"State";"Description";"Authority"
"256924";"S";"de:01004:105089";"de:01004:105089";"Neumünster Freesenburg/Wasbeker Straße";"54,068948";"9,939479";"01004000";"Neumünster";"";"";"Served";"Unknown";"";"VBN"
"256925";"Q";"de:01004:105089::1";"de:01004:105089";"Neumünster Freesenburg/Wasbeker Straße";"54,068948";"9,939479";"00000000";"-";"-";"-";"Served";"Unknown";"";"VBN"
"256926";"S";"de:01004:105090";"de:01004:105090";"Neumünster Geerdtsstraße";"54,087843";"9,953129";"01004000";"Neumünster";"";"";"Served";"Unknown";"";"VBN"
"256927";"Q";"de:01004:105090::1";"de:01004:105090";"Neumünster Geerdtsstraße";"54,087917";"9,952647";"00000000";"-";"-";"-";"Served";"Unknown";"";"VBN"
"256928";"S";"de:01004:105091";"de:01004:105091";"Neumünster Holstenhallen/Rendsburger Straße";"54,094539";"9,972724";"01004000";"Neumünster";"";"";"Served";"Unknown";"";"VBN"
"256929";"Q";"de:01004:105091::1";"de:01004:105091";"Neumünster Holstenhallen/Rendsburger Straße";"54,094539";"9,972724";"00000000";"-";"-";"-";"Served";"Unknown";"";"VBN"
"256930";"Q";"de:01004:105091::2";"de:01004:105091";"Neumünster Holstenhallen/Rendsburger Straße";"54,094573";"9,972625";"00000000";"-";"-";"-";"Served";"Unknown";"";"VBN"
"256931";"S";"de:01004:105092";"de:01004:105092";"Neumünster Wiesenstraße";"54,051096";"9,973533";"01004000";"Neumünster";"";"";"Served";"Unknown";"";"VBN"
"256932";"Q";"de:01004:105092::1";"de:01004:105092";"Neumünster Wiesenstraße";"54,051032";"9,973646";"00000000";"-";"-";"-";"Served";"Unknown";"";"VBN"
"256933";"S";"de:01004:23309";"de:01004:23309";"Neumünster-Einfeld";"54,129373";"9,997923";"01004000";"Neumünster";"";"";"Served";"Unknown";"";"VBN"
"256934";"Q";"de:01004:23309::1";"de:01004:23309";"Einfeld";"54,129373";"9,997923";"00000000";"-";"-";"-";"Served";"Unknown";"";"VBN"
"256935";"S";"de:01004:581";"de:01004:581";"Neumünster Klosterstraße";"54,078425";"9,993975";"01004000";"Neumünster";"";"";"Served";"Unknown";"";"VBN"
"256936";"Q";"de:01004:581::1";"de:01004:581";"Neumünster Klosterstraße";"54,078831";"9,993979";"00000000";"-";"-";"-";"Served";"Unknown";"";"VBN"
"256937";"Q";"de:01004:581::2";"de:01004:581";"Neumünster Klosterstraße";"54,078072";"9,993998";"00000000";"-";"-";"-";"Served";"Unknown";"";"VBN"
"256938";"S";"de:01004:582";"de:01004:582";"Neumünster Donaubogen";"54,039554";"9,980939";"01004000";"Neumünster";"";"";"Served";"Unknown";"";"VBN"
"256939";"Q";"de:01004:582::1";"de:01004:582";"Neumünster Donaubogen";"54,039495";"9,980792";"00000000";"-";"-";"-";"Served";"Unknown";"";"VBN"
"256940";"S";"de:01004:583";"de:01004:583";"Neumünster Isarstraße";"54,036668";"9,986816";"01004000";"Neumünster";"";"";"Served";"Unknown";"";"VBN"
"256941";"Q";"de:01004:583::1";"de:01004:583";"Neumünster Isarstraße";"54,036603";"9,986801";"00000000";"-";"-";"-";"Served";"Unknown";"";"VBN"
"256942";"S";"de:01004:584";"de:01004:584";"Neumünster Isarstraße 44";"54,036563";"10,00821";"01004000";"Neumünster";"";"";"Served";"Unknown";"";"VBN"
"256943";"Q";"de:01004:584::1";"de:01004:584";"Neumünster Isarstraße 44";"54,036563";"10,00821";"00000000";"-";"-";"-";"Served";"Unknown";"";"VBN"
"256944";"S";"de:01004:585";"de:01004:585";"Neumünster Isarstraße 20";"54,038504";"10,00057";"01004000";"Neumünster";"";"";"Served";"Unknown";"";"VBN"
"256945";"Q";"de:01004:585::1";"de:01004:585";"Neumünster Isarstraße 20";"54,038551";"10,000554";"00000000";"-";"-";"-";"Served";"Unknown";"";"VBN"
"256946";"S";"de:01004:586";"de:01004:586";"Neumünster Edeka Meyer's";"54,080499";"9,993821";"01004000";"Neumünster";"";"";"Served";"Unknown";"";"VBN"
"256947";"Q";"de:01004:586::1";"de:01004:586";"Neumünster Edeka Meyer's";"54,080499";"9,993821";"00000000";"-";"-";"-";"Served";"Unknown";"";"VBN"
"256948";"S";"de:01004:587";"de:01004:587";"Neumünster Tulpenweg";"54,099443";"10,002062";"01004000";"Neumünster";"";"";"Served";"Unknown";"";"VBN"
"256949";"Q";"de:01004:587::1";"de:01004:587";"Neumünster Tulpenweg";"54,099443";"10,002062";"00000000";"-";"-";"-";"Served";"Unknown";"";"VBN"
"256950";"Q";"de:01004:587::2";"de:01004:587";"Neumünster Tulpenweg";"54,098941";"10,001912";"00000000";"-";"-";"-";"Served";"Unknown";"";"VBN"
"256951";"S";"de:01004:588";"de:01004:588";"Neumünster Mitteljörn";"54,095636";"10,001588";"01004000";"Neumünster";"";"";"Served";"Unknown";"";"VBN"
"256952";"Q";"de:01004:588::1";"de:01004:588";"Neumünster Mitteljörn";"54,095636";"10,001588";"00000000";"-";"-";"-";"Served";"Unknown";"";"VBN"
"256953";"Q";"de:01004:588::2";"de:01004:588";"Neumünster Mitteljörn";"54,095331";"10,001473";"00000000";"-";"-";"-";"Served";"Unknown";"";"VBN"
"256954";"S";"de:01004:61254";"de:01004:61254";"Messpunkt Neumünster-Nord";"54,123771";"9,954169";"01004000";"Neumünster";"";"";"Served";"Unknown";"";"VBN"
"256955";"Q";"de:01004:61254::1";"de:01004:61254";"Messpunkt Neumünster-Nord";"54,122454";"9,953217";"00000000";"-";"-";"-";"Served";"Unknown";"";"VBN"
"256956";"S";"de:01004:66023";"de:01004:66023";"Neumünster";"54,075752";"9,979816";"01004000";"Neumünster";"";"";"Served";"Unknown";"";"VBN"
"256957";"Q";"de:01004:66023::1";"de:01004:66023";"Neumünster";"54,075752";"9,979816";"00000000";"-";"-";"-";"Served";"Unknown";"";"VBN"
"256958";"S";"de:01004:66024";"de:01004:66024";"Neumünster Allerstraße";"54,044025";"9,999238";"01004000";"Neumünster";"";"";"Served";"Unknown";"";"VBN"
"256959";"Q";"de:01004:66024::1";"de:01004:66024";"Neumünster Allerstraße";"54,044025";"9,999238";"00000000";"-";"-";"-";"Served";"Unknown";"";"VBN"
"256960";"S";"de:01004:66025";"de:01004:66025";"Neumünster Alsenplatz";"54,091644";"10,006772";"01004000";"Neumünster";"";"";"Served";"Unknown";"";"VBN"
"256961";"Q";"de:01004:66025::1";"de:01004:66025";"Neumünster Alsenplatz";"54,09143";"10,006821";"00000000";"-";"-";"-";"Served";"Unknown";"";"VBN"
"256962";"Q";"de:01004:66025::2";"de:01004:66025";"Neumünster Alsenplatz";"54,091722";"10,006166";"00000000";"-";"-";"-";"Served";"Unknown";"";"VBN"
"256963";"S";"de:01004:66026";"de:01004:66026";"Neumünster Am Graben";"54,04796";"9,99608";"01004000";"Neumünster";"";"";"Served";"Unknown";"";"VBN"
"256964";"Q";"de:01004:66026::1";"de:01004:66026";"Neumünster Am Graben";"54,04796";"9,99608";"00000000";"-";"-";"-";"Served";"Unknown";"";"VBN"
"256965";"S";"de:01004:66027";"de:01004:66027";"Neumünster Am Neuen Kamp";"54,092655";"9,972323";"01004000";"Neumünster";"";"";"Served";"Unknown";"";"VBN"
"256966";"Q";"de:01004:66027::1";"de:01004:66027";"Neumünster Am Neuen Kamp";"54,092698";"9,973";"00000000";"-";"-";"-";"Served";"Unknown";"";"VBN"
"256967";"S";"de:01004:66028";"de:01004:66028";"Neumünster Am Ruthenberg";"54,071108";"10,013851";"01004000";"Neumünster";"";"";"Served";"Unknown";"";"VBN"
"256968";"Q";"de:01004:66028::1";"de:01004:66028";"Neumünster Am Ruthenberg";"54,069471";"10,014528";"00000000";"-";"-";"-";"Served";"Unknown";"";"VBN"
"256969";"Q";"de:01004:66028::2";"de:01004:66028";"Neumünster Am Ruthenberg";"54,069142";"10,015147";"00000000";"-";"-";"-";"Served";"Unknown";"";"VBN"
"256970";"S";"de:01004:66029";"de:01004:66029";"Neumünster Am Sünderbek";"54,049314";"10,040895";"01004000";"Neumünster";"";"";"Served";"Unknown";"";"VBN"
"256971";"Q";"de:01004:66029::1";"de:01004:66029";"Neumünster Am Sünderbek";"54,049314";"10,040895";"00000000";"-";"-";"-";"Served";"Unknown";"";"VBN"
"256972";"Q";"de:01004:66029::2";"de:01004:66029";"Neumünster Am Sünderbek";"54,04927";"10,040852";"00000000";"-";"-";"-";"Served";"Unknown";"";"VBN"
"256973";"S";"de:01004:66030";"de:01004:66030";"Neumünster Am Teich";"54,073566";"9,983761";"01004000";"Neumünster";"";"";"Served";"Unknown";"";"VBN"
"256974";"Q";"de:01004:66030::1";"de:01004:66030";"Neumünster Am Teich";"54,073413";"9,983288";"00000000";"-";"-";"-";"Served";"Unknown";"";"VBN"
"256975";"Q";"de:01004:66030::2";"de:01004:66030";"Neumünster Am Teich";"54,073669";"9,984079";"00000000";"-";"-";"-";"Served";"Unknown";"";"VBN"
"256976";"S";"de:01004:66031";"de:01004:66031";"Neumünster Amrumer Straße";"54,063022";"9,944319";"01004000";"Neumünster";"";"";"Served";"Unknown";"";"VBN"
"256977";"Q";"de:01004:66031::1";"de:01004:66031";"Neumünster Amrumer Straße";"54,062943";"9,944003";"00000000";"-";"-";"-";"Served";"Unknown";"";"VBN"
"256978";"Q";"de:01004:66031::2";"de:01004:66031";"Neumünster Amrumer Straße";"54,063031";"9,944516";"00000000";"-";"-";"-";"Served";"Unknown";"";"VBN"
"256979";"S";"de:01004:66032";"de:01004:66032";"Neumünster Anscharstraße";"54,07853";"9,983698";"01004000";"Neumünster";"";"";"Served";"Unknown";"";"VBN"
"256980";"Q";"de:01004:66032::1";"de:01004:66032";"Neumünster Anscharstraße";"54,078725";"9,983856";"00000000";"-";"-";"-";"Served";"Unknown";"";"VBN"
"256981";"Q";"de:01004:66032::2";"de:01004:66032";"Neumünster Anscharstraße";"54,078248";"9,983576";"00000000";"-";"-";"-";"Served";"Unknown";"";"VBN"
"256982";"S";"de:01004:66033";"de:01004:66033";"Neumünster Asperkamp";"54,04916";"10,01579";"01004000";"Neumünster";"";"";"Served";"Unknown";"";"VBN"
"256983";"Q";"de:01004:66033::1";"de:01004:66033";"Neumünster Asperkamp";"54,04919";"10,015913";"00000000";"-";"-";"-";"Served";"Unknown";"";"VBN"
"256984";"Q";"de:01004:66033::2";"de:01004:66033";"Neumünster Asperkamp";"54,049144";"10,015522";"00000000";"-";"-";"-";"Served";"Unknown";"";"VBN"
"256985";"S";"de:01004:66034";"de:01004:66034";"Neumünster August-Macke-Straße";"54,064796";"10,017699";"01004000";"Neumünster";"";"";"Served";"Unknown";"";"VBN"
"256986";"Q";"de:01004:66034::1";"de:01004:66034";"Neumünster August-Macke-Straße";"54,064796";"10,017699";"00000000";"-";"-";"-";"Served";"Unknown";"";"VBN"
"256987";"Q";"de:01004:66034::2";"de:01004:66034";"Neumünster August-Macke-Straße";"54,064909";"10,017879";"00000000";"-";"-";"-";"Served";"Unknown";"";"VBN"
"256988";"S";"de:01004:66035";"de:01004:66035";"Neumünster Bad am Stadtwald";"54,079935";"9,960123";"01004000";"Neumünster";"";"";"Served";"Unknown";"";"VBN"
"256989";"Q";"de:01004:66035::1";"de:01004:66035";"Neumünster Bad am Stadtwald";"54,079977";"9,960098";"00000000";"-";"-";"-";"Served";"Unknown";"";"VBN"
"256990";"S";"de:01004:66036";"de:01004:66036";"Neumünster Baeyerstraße";"54,10024";"9,978441";"01004000";"Neumünster";"";"";"Served";"Unknown";"";"VBN"
"256991";"Q";"de:01004:66036::1";"de:01004:66036";"Neumünster Baeyerstraße";"54,100302";"9,978439";"00000000";"-";"-";"-";"Served";"Unknown";"";"VBN"
"256992";"Q";"de:01004:66036::2";"de:01004:66036";"Neumünster Baeyerstraße";"54,100195";"9,97836";"00000000";"-";"-";"-";"Served";"Unknown";"";"VBN"
"256993";"S";"de:01004:66037";"de:01004:66037";"Neumünster Baumarkt";"54,045051";"10,007675";"01004000";"Neumünster";"";"";"Served";"Unknown";"";"VBN"
"256994";"Q";"de:01004:66037::1";"de:01004:66037";"Neumünster Baumarkt";"54,04484";"10,007744";"00000000";"-";"-";"-";"Served";"Unknown";"";"VBN"
"256995";"Q";"de:01004:66037::2";"de:01004:66037";"Neumünster Baumarkt";"54,044994";"10,007791";"00000000";"-";"-";"-";"Served";"Unknown";"";"VBN"
"256996";"S";"de:01004:66038";"de:01004:66038";"Neumünster Baumschulenweg";"54,070426";"9,957213";"01004000";"Neumünster";"";"";"Served";"Unknown";"";"VBN"
"256997";"Q";"de:01004:66038::1";"de:01004:66038";"Neumünster Baumschulenweg";"54,070482";"9,956707";"00000000";"-";"-";"-";"Served";"Unknown";"";"VBN"
"256998";"Q";"de:01004:66038::2";"de:01004:66038";"Neumünster Baumschulenweg";"54,070403";"9,957587";"00000000";"-";"-";"-";"Served";"Unknown";"";"VBN"
"256999";"S";"de:01004:66039";"de:01004:66039";"Neumünster Beethovenstraße";"54,077384";"9,968596";"01004000";"Neumünster";"";"";"Served";"Unknown";"";"VBN"
"257000";"Q";"de:01004:66039::1";"de:01004:66039";"Neumünster Beethovenstraße";"54,077194";"9,968389";"00000000";"-";"-";"-";"Served";"Unknown";"";"VBN"
"257001";"Q";"de:01004:66039::2";"de:01004:66039";"Neumünster Beethovenstraße";"54,077804";"9,969122";"00000000";"-";"-";"-";"Served";"Unknown";"";"VBN"
"257002";"S";"de:01004:66040";"de:01004:66040";"Neumünster Berliner Straße";"54,120253";"9,986573";"01004000";"Neumünster";"";"";"Served";"Unknown";"";"VBN"
"257003";"Q";"de:01004:66040::1";"de:01004:66040";"Neumünster Berliner Straße";"54,120392";"9,986454";"00000000";"-";"-";"-";"Served";"Unknown";"";"VBN"
"257004";"Q";"de:01004:66040::2";"de:01004:66040";"Neumünster Berliner Straße";"54,120171";"9,986665";"00000000";"-";"-";"-";"Served";"Unknown";"";"VBN"
"257005";"S";"de:01004:66041";"de:01004:66041";"Neumünster Berufsschule";"54,073103";"9,966689";"01004000";"Neumünster";"";"";"Served";"Unknown";"";"VBN"
"257006";"Q";"de:01004:66041::1";"de:01004:66041";"Neumünster Berufsschule";"54,073306";"9,966831";"00000000";"-";"-";"-";"Served";"Unknown";"";"VBN"
"257007";"Q";"de:01004:66041::2";"de:01004:66041";"Neumünster Berufsschule";"54,072913";"9,966501";"00000000";"-";"-";"-";"Served";"Unknown";"";"VBN"
"257008";"S";"de:01004:66042";"de:01004:66042";"Neumünster Birkenweg";"54,093587";"9,96992";"01004000";"Neumünster";"";"";"Served";"Unknown";"";"VBN"
"257009";"Q";"de:01004:66042::1";"de:01004:66042";"Neumünster Birkenweg";"54,093252";"9,970308";"00000000";"-";"-";"-";"Served";"Unknown";"";"VBN"
"257010";"Q";"de:01004:66042::2";"de:01004:66042";"Neumünster Birkenweg";"54,093949";"9,969467";"00000000";"-";"-";"-";"Served";"Unknown";"";"VBN"
"257011";"S";"de:01004:66043";"de:01004:66043";"Neumünster Bismarckstraße";"54,081478";"9,992208";"01004000";"Neumünster";"";"";"Served";"Unknown";"";"VBN"
"257012";"Q";"de:01004:66043::1";"de:01004:66043";"Neumünster Bismarckstraße";"54,081476";"9,992274";"00000000";"-";"-";"-";"Served";"Unknown";"";"VBN"
"257013";"Q";"de:01004:66043::2";"de:01004:66043";"Neumünster Bismarckstraße";"54,081554";"9,99222";"00000000";"-";"-";"-";"Served";"Unknown";"";"VBN"
"257014";"S";"de:01004:66044";"de:01004:66044";"Neumünster Bogenstraße";"54,062429";"9,958229";"01004000";"Neumünster";"";"";"Served";"Unknown";"";"VBN"
"257015";"Q";"de:01004:66044::1";"de:01004:66044";"Neumünster Bogenstraße";"54,062535";"9,958719";"00000000";"-";"-";"-";"Served";"Unknown";"";"VBN"
"257016";"Q";"de:01004:66044::2";"de:01004:66044";"Neumünster Bogenstraße";"54,062295";"9,957661";"00000000";"-";"-";"-";"Served";"Unknown";"";"VBN"
"257017";"S";"de:01004:66045";"de:01004:66045";"Neumünster Brachenfelder Straße";"54,074344";"9,996483";"01004000";"Neumünster";"";"";"Served";"Unknown";"";"VBN"
"257018";"Q";"de:01004:66045::1";"de:01004:66045";"Neumünster Brachenfelder Straße";"54,074344";"9,996483";"00000000";"-";"-";"-";"Served";"Unknown";"";"VBN"
"257019";"Q";"de:01004:66045::2";"de:01004:66045";"Neumünster Brachenfelder Straße";"54,074351";"9,99657";"00000000";"-";"-";"-";"Served";"Unknown";"";"VBN"
"257020";"S";"de:01004:66046";"de:01004:66046";"Neumünster Breslauer Straße";"54,079334";"9,957066";"01004000";"Neumünster";"";"";"Served";"Unknown";"";"VBN"
"257021";"Q";"de:01004:66046::1";"de:01004:66046";"Neumünster Breslauer Straße";"54,079315";"9,957026";"00000000";"-";"-";"-";"Served";"Unknown";"";"VBN"
"257022";"S";"de:01004:66047";"de:01004:66047";"Neumünster Buddestraße";"54,087203";"9,986136";"01004000";"Neumünster";"";"";"Served";"Unknown";"";"VBN"
"257023";"Q";"de:01004:66047::1";"de:01004:66047";"Neumünster Buddestraße";"54,086913";"9,985984";"00000000";"-";"-";"-";"Served";"Unknown";"";"VBN"
"257024";"Q";"de:01004:66047::2";"de:01004:66047";"Neumünster Buddestraße";"54,087312";"9,986292";"00000000";"-";"-";"-";"Served";"Unknown";"";"VBN"
"257025";"S";"de:01004:66048";"de:01004:66048";"Neumünster Bugenhagenkirche";"54,077463";"9,962181";"01004000";"Neumünster";"";"";"Served";"Unknown";"";"VBN"
"257026";"Q";"de:01004:66048::1";"de:01004:66048";"Neumünster Bugenhagenkirche";"54,077463";"9,962181";"00000000";"-";"-";"-";"Served";"Unknown";"";"VBN"
"257027";"Q";"de:01004:66049::1";"de:01004:66048";"Neumünster Bugenhagenkirche";"54,07733";"9,962645";"00000000";"-";"-";"-";"Served";"Unknown";"";"VBN"
"257028";"S";"de:01004:66049";"de:01004:66049";"Neumünster Bugenhagenkirche";"54,078116";"9,961417";"01004000";"Neumünster";"-";"-";"Served";"Unknown";"";"VBN"
"257029";"S";"de:01004:66050";"de:01004:66050";"Neumünster Busbetriebshof";"54,083519";"9,978779";"01004000";"Neumünster";"";"";"Served";"Unknown";"";"VBN"
"257030";"Q";"de:01004:66050::1";"de:01004:66050";"Neumünster Busbetriebshof";"54,083636";"9,978674";"00000000";"-";"-";"-";"Served";"Unknown";"";"VBN"
"257031";"Q";"de:01004:66050::2";"de:01004:66050";"Neumünster Busbetriebshof";"54,083302";"9,978895";"00000000";"-";"-";"-";"Served";"Unknown";"";"VBN"
"257032";"S";"de:01004:66051";"de:01004:66051";"Neumünster Bönebütteler Weg";"54,072716";"10,029809";"01004000";"Neumünster";"";"";"Served";"Unknown";"";"VBN"
"257033";"Q";"de:01004:66051::1";"de:01004:66051";"Neumünster Bönebütteler Weg";"54,072716";"10,029809";"00000000";"-";"-";"-";"Served";"Unknown";"";"VBN"
"257034";"S";"de:01004:66052";"de:01004:66052";"Neumünster Carl-Barlach-Straße";"54,096972";"9,970704";"01004000";"Neumünster";"";"";"Served";"Unknown";"";"VBN"
"257035";"Q";"de:01004:66052::1";"de:01004:66052";"Neumünster Carl-Barlach-Straße";"54,096698";"9,970846";"00000000";"-";"-";"-";"Served";"Unknown";"";"VBN"
"257036";"Q";"de:01004:66052::2";"de:01004:66052";"Neumünster Carl-Barlach-Straße";"54,097617";"9,970308";"00000000";"-";"-";"-";"Served";"Unknown";"";"VBN"
"257037";"S";"de:01004:66053";"de:01004:66053";"Neumünster Carlstraße";"54,080694";"9,975613";"01004000";"Neumünster";"";"";"Served";"Unknown";"";"VBN"
"257038";"Q";"de:01004:66053::1";"de:01004:66053";"Neumünster Carlstraße";"54,080717";"9,975423";"00000000";"-";"-";"-";"Served";"Unknown";"";"VBN"
"257039";"Q";"de:01004:66053::2";"de:01004:66053";"Neumünster Carlstraße";"54,080657";"9,975708";"00000000";"-";"-";"-";"Served";"Unknown";"";"VBN"
"257040";"S";"de:01004:66054";"de:01004:66054";"Neumünster Caspar-von-Saldern-Haus";"54,068006";"9,991505";"01004000";"Neumünster";"";"";"Served";"Unknown";"";"VBN"
"257041";"Q";"de:01004:66054::1";"de:01004:66054";"Neumünster Caspar-von-Saldern-Haus";"54,068006";"9,991505";"00000000";"-";"-";"-";"Served";"Unknown";"";"VBN"
"257042";"Q";"de:01004:66054::2";"de:01004:66054";"Neumünster Caspar-von-Saldern-Haus";"54,068054";"9,991488";"00000000";"-";"-";"-";"Served";"Unknown";"";"VBN"
"257043";"S";"de:01004:66055";"de:01004:66055";"Neumünster Christiansweg";"54,107303";"9,986296";"01004000";"Neumünster";"";"";"Served";"Unknown";"";"VBN"
"257044";"Q";"de:01004:66055::1";"de:01004:66055";"Neumünster Christiansweg";"54,10727";"9,986414";"00000000";"-";"-";"-";"Served";"Unknown";"";"VBN"
"257045";"Q";"de:01004:66055::2";"de:01004:66055";"Neumünster Christiansweg";"54,107372";"9,986216";"00000000";"-";"-";"-";"Served";"Unknown";"";"VBN"
"257046";"S";"de:01004:66056";"de:01004:66056";"Neumünster Dahlienweg";"54,096757";"9,995731";"01004000";"Neumünster";"";"";"Served";"Unknown";"";"VBN"
"257047";"Q";"de:01004:66056::1";"de:01004:66056";"Neumünster Dahlienweg";"54,096637";"9,99577";"00000000";"-";"-";"-";"Served";"Unknown";"";"VBN"
"257048";"Q";"de:01004:66056::2";"de:01004:66056";"Neumünster Dahlienweg";"54,096855";"9,99566";"00000000";"-";"-";"-";"Served";"Unknown";"";"VBN"
"257049";"S";"de:01004:66057";"de:01004:66057";"Neumünster Designer Outlet Center";"54,044022";"9,979848";"01004000";"Neumünster";"";"";"Served";"Unknown";"";"VBN"
"257050";"Q";"de:01004:66057::1";"de:01004:66057";"Neumünster Designer Outlet Center";"54,043957";"9,980037";"00000000";"-";"-";"-";"Served";"Unknown";"";"VBN"
"257051";"S";"de:01004:66058";"de:01004:66058";"Neumünster Diekkamp";"54,051058";"10,035595";"01004000";"Neumünster";"";"";"Served";"Unknown";"";"VBN"
"257052";"Q";"de:01004:66058::1";"de:01004:66058";"Neumünster Diekkamp";"54,051058";"10,035595";"00000000";"-";"-";"-";"Served";"Unknown";"";"VBN"
"257053";"Q";"de:01004:66058::2";"de:01004:66058";"Neumünster Diekkamp";"54,050997";"10,035508";"00000000";"-";"-";"-";"Served";"Unknown";"";"VBN"
"257054";"S";"de:01004:66059";"de:01004:66059";"Neumünster Dithmarscher Straße";"54,062911";"9,99172";"01004000";"Neumünster";"";"";"Served";"Unknown";"";"VBN"
"257055";"Q";"de:01004:66059::1";"de:01004:66059";"Neumünster Dithmarscher Straße";"54,063282";"9,991381";"00000000";"-";"-";"-";"Served";"Unknown";"";"VBN"
"257056";"Q";"de:01004:66059::2";"de:01004:66059";"Neumünster Dithmarscher Straße";"54,062638";"9,992023";"00000000";"-";"-";"-";"Served";"Unknown";"";"VBN"
"257057";"S";"de:01004:66060";"de:01004:66060";"Neumünster Dorfstraße";"54,126463";"9,995191";"01004000";"Neumünster";"";"";"Served";"Unknown";"";"VBN"
"257058";"Q";"de:01004:66060::1";"de:01004:66060";"Neumünster Dorfstraße";"54,126329";"9,995241";"00000000";"-";"-";"-";"Served";"Unknown";"";"VBN"
"257059";"Q";"de:01004:66060::2";"de:01004:66060";"Neumünster Dorfstraße";"54,126638";"9,99489";"00000000";"-";"-";"-";"Served";"Unknown";"";"VBN"
"257060";"S";"de:01004:66061";"de:01004:66061";"Neumünster Ecke Hahnknüll";"54,093627";"9,947378";"01004000";"Neumünster";"";"";"Served";"Unknown";"";"VBN"
"257061";"Q";"de:01004:66061::1";"de:01004:66061";"Neumünster Ecke Hahnknüll";"54,093563";"9,947608";"00000000";"-";"-";"-";"Served";"Unknown";"";"VBN"
"257062";"Q";"de:01004:66061::2";"de:01004:66061";"Neumünster Ecke Hahnknüll";"54,093638";"9,947502";"00000000";"-";"-";"-";"Served";"Unknown";"";"VBN"
"257063";"S";"de:01004:66062";"de:01004:66062";"Neumünster Eduard-Müller-Straße";"54,058514";"10,014613";"01004000";"Neumünster";"";"";"Served";"Unknown";"";"VBN"
"257064";"Q";"de:01004:66062::1";"de:01004:66062";"Neumünster Eduard-Müller-Straße";"54,058463";"10,014862";"00000000";"-";"-";"-";"Served";"Unknown";"";"VBN"
"257065";"Q";"de:01004:66062::2";"de:01004:66062";"Neumünster Eduard-Müller-Straße";"54,05864";"10,014447";"00000000";"-";"-";"-";"Served";"Unknown";"";"VBN"
"257066";"S";"de:01004:66063";"de:01004:66063";"Neumünster Einfelder Straße";"54,127981";"9,993242";"01004000";"Neumünster";"";"";"Served";"Unknown";"";"VBN"
"257067";"Q";"de:01004:66063::1";"de:01004:66063";"Neumünster Einfelder Straße";"54,127851";"9,99285";"00000000";"-";"-";"-";"Served";"Unknown";"";"VBN"
"257068";"Q";"de:01004:66063::2";"de:01004:66063";"Neumünster Einfelder Straße";"54,128094";"9,993562";"00000000";"-";"-";"-";"Served";"Unknown";"";"VBN"
"257069";"S";"de:01004:66064";"de:01004:66064";"Neumünster Elbestraße";"54,052152";"9,987919";"01004000";"Neumünster";"";"";"Served";"Unknown";"";"VBN"
"257070";"Q";"de:01004:66064::1";"de:01004:66064";"Neumünster Elbestraße";"54,05217";"9,988367";"00000000";"-";"-";"-";"Served";"Unknown";"";"VBN"
"257071";"Q";"de:01004:66064::2";"de:01004:66064";"Neumünster Elbestraße";"54,051557";"9,987497";"00000000";"-";"-";"-";"Served";"Unknown";"";"VBN"
"257072";"Q";"de:01004:66064::3";"de:01004:66064";"Neumünster Elbestraße";"54,05161";"9,987636";"00000000";"-";"-";"-";"Served";"Unknown";"";"VBN"
"257073";"S";"de:01004:66065";"de:01004:66065";"Neumünster Elsterweg";"54,049131";"10,01072";"01004000";"Neumünster";"";"";"Served";"Unknown";"";"VBN"
"257074";"Q";"de:01004:66065::1";"de:01004:66065";"Neumünster Elsterweg";"54,049131";"10,01072";"00000000";"-";"-";"-";"Served";"Unknown";"";"VBN"
"257075";"Q";"de:01004:66065::2";"de:01004:66065";"Neumünster Elsterweg";"54,049061";"10,010516";"00000000";"-";"-";"-";"Served";"Unknown";"";"VBN"
"257076";"S";"de:01004:66066";"de:01004:66066";"Neumünster Enenvelde";"54,116388";"9,991508";"01004000";"Neumünster";"";"";"Served";"Unknown";"";"VBN"
"257077";"Q";"de:01004:66066::1";"de:01004:66066";"Neumünster Enenvelde";"54,116518";"9,991555";"00000000";"-";"-";"-";"Served";"Unknown";"";"VBN"
"257078";"Q";"de:01004:66066::2";"de:01004:66066";"Neumünster Enenvelde";"54,116467";"9,991386";"00000000";"-";"-";"-";"Served";"Unknown";"";"VBN"
"257079";"S";"de:01004:66067";"de:01004:66067";"Neumünster Erikaweg";"54,095289";"10,005858";"01004000";"Neumünster";"";"";"Served";"Unknown";"";"VBN"
"257080";"Q";"de:01004:66067::1";"de:01004:66067";"Neumünster Erikaweg";"54,09542";"10,005864";"00000000";"-";"-";"-";"Served";"Unknown";"";"VBN"
"257081";"Q";"de:01004:66067::2";"de:01004:66067";"Neumünster Erikaweg";"54,095117";"10,005839";"00000000";"-";"-";"-";"Served";"Unknown";"";"VBN"
"257082";"S";"de:01004:66068";"de:01004:66068";"Neumünster Ernst-Reuter-Platz";"54,123917";"9,986217";"01004000";"Neumünster";"";"";"Served";"Unknown";"";"VBN"
"257083";"Q";"de:01004:66068::1";"de:01004:66068";"Neumünster Ernst-Reuter-Platz";"54,12394";"9,98628";"00000000";"-";"-";"-";"Served";"Unknown";"";"VBN"
"257084";"Q";"de:01004:66068::2";"de:01004:66068";"Neumünster Ernst-Reuter-Platz";"54,123857";"9,986162";"00000000";"-";"-";"-";"Served";"Unknown";"";"VBN"
"257085";"S";"de:01004:66069";"de:01004:66069";"Neumünster Fabrik";"54,060753";"10,010951";"01004000";"Neumünster";"";"";"Served";"Unknown";"";"VBN"
"257086";"Q";"de:01004:66069::1";"de:01004:66069";"Neumünster Fabrik";"54,060445";"10,011466";"00000000";"-";"-";"-";"Served";"Unknown";"";"VBN"
"257087";"Q";"de:01004:66069::2";"de:01004:66069";"Neumünster Fabrik";"54,061139";"10,010246";"00000000";"-";"-";"-";"Served";"Unknown";"";"VBN"
"257088";"S";"de:01004:66070";"de:01004:66070";"Neumünster Falderapark";"54,068949";"9,960297";"01004000";"Neumünster";"";"";"Served";"Unknown";"";"VBN"
"257089";"Q";"de:01004:66070::1";"de:01004:66070";"Neumünster Falderapark";"54,06853";"9,959354";"00000000";"-";"-";"-";"Served";"Unknown";"";"VBN"
"257090";"Q";"de:01004:66070::2";"de:01004:66070";"Neumünster Falderapark";"54,069532";"9,961135";"00000000";"-";"-";"-";"Served";"Unknown";"";"VBN"
"257091";"S";"de:01004:66071";"de:01004:66071";"Neumünster Falderastraße";"54,065037";"9,967056";"01004000";"Neumünster";"";"";"Served";"Unknown";"";"VBN"
"257092";"Q";"de:01004:66071::1";"de:01004:66071";"Neumünster Falderastraße";"54,064815";"9,966803";"00000000";"-";"-";"-";"Served";"Unknown";"";"VBN"
"257093";"Q";"de:01004:66071::2";"de:01004:66071";"Neumünster Falderastraße";"54,065221";"9,967331";"00000000";"-";"-";"-";"Served";"Unknown";"";"VBN"
"257094";"S";"de:01004:66072";"de:01004:66072";"Neumünster Alte Feuerwache";"54,067188";"9,985085";"01004000";"Neumünster";"";"";"Served";"Unknown";"";"VBN"
"257095";"Q";"de:01004:66072::1";"de:01004:66072";"Neumünster Alte Feuerwache";"54,067433";"9,985631";"00000000";"-";"-";"-";"Served";"Unknown";"";"VBN"
"257096";"Q";"de:01004:66072::2";"de:01004:66072";"Neumünster Alte Feuerwache";"54,066082";"9,985305";"00000000";"-";"-";"-";"Served";"Unknown";"";"VBN"
"257097";"S";"de:01004:66073";"de:01004:66073";"Neumünster Flensburger Straße";"54,059334";"9,949008";"01004000";"Neumünster";"";"";"Served";"Unknown";"";"VBN"
"257098";"Q";"de:01004:66073::1";"de:01004:66073";"Neumünster Flensburger Straße";"54,059337";"9,94886";"00000000";"-";"-";"-";"Served";"Unknown";"";"VBN"
"257099";"Q";"de:01004:66073::2";"de:01004:66073";"Neumünster Flensburger Straße";"54,059278";"9,949";"00000000";"-";"-";"-";"Served";"Unknown";"";"VBN"
"257100";"S";"de:01004:66074";"de:01004:66074";"Neumünster Forstweg";"54,085859";"9,968558";"01004000";"Neumünster";"";"";"Served";"Unknown";"";"VBN"
"257101";"Q";"de:01004:66074::1";"de:01004:66074";"Neumünster Forstweg";"54,085886";"9,968392";"00000000";"-";"-";"-";"Served";"Unknown";"";"VBN"
"257102";"Q";"de:01004:66074::2";"de:01004:66074";"Neumünster Forstweg";"54,085789";"9,96874";"00000000";"-";"-";"-";"Served";"Unknown";"";"VBN"
"257103";"S";"de:01004:66075";"de:01004:66075";"Neumünster Frankenstraße";"54,059632";"9,994332";"01004000";"Neumünster";"";"";"Served";"Unknown";"";"VBN"
"257104";"Q";"de:01004:66075::1";"de:01004:66075";"Neumünster Frankenstraße";"54,059534";"9,994554";"00000000";"-";"-";"-";"Served";"Unknown";"";"VBN"
"257105";"Q";"de:01004:66075::2";"de:01004:66075";"Neumünster Frankenstraße";"54,05969";"9,994199";"00000000";"-";"-";"-";"Served";"Unknown";"";"VBN"
"257106";"S";"de:01004:66076";"de:01004:66076";"Neumünster Franz-Wieman-Straße";"54,063636";"9,962106";"01004000";"Neumünster";"";"";"Served";"Unknown";"";"VBN"
"257107";"Q";"de:01004:66076::1";"de:01004:66076";"Neumünster Franz-Wieman-Straße";"54,063717";"9,962643";"00000000";"-";"-";"-";"Served";"Unknown";"";"VBN"
"257108";"Q";"de:01004:66076::2";"de:01004:66076";"Neumünster Franz-Wieman-Straße";"54,063498";"9,961469";"00000000";"-";"-";"-";"Served";"Unknown";"";"VBN"
"257109";"S";"de:01004:66077";"de:01004:66077";"Neumünster Freesenburg";"54,069342";"9,941881";"01004000";"Neumünster";"";"";"Served";"Unknown";"";"VBN"
"257110";"Q";"de:01004:66077::1";"de:01004:66077";"Neumünster Freesenburg";"54,069045";"9,942669";"00000000";"-";"-";"-";"Served";"Unknown";"";"VBN"
"257111";"Q";"de:01004:66077::2";"de:01004:66077";"Neumünster Freesenburg";"54,069501";"9,941925";"00000000";"-";"-";"-";"Served";"Unknown";"";"VBN"
"257112";"S";"de:01004:66078";"de:01004:66078";"Neumünster Freesencenter";"54,069938";"9,939856";"01004000";"Neumünster";"";"";"Served";"Unknown";"";"VBN"
"257113";"Q";"de:01004:66078::1";"de:01004:66078";"Neumünster Freesencenter";"54,069888";"9,939886";"00000000";"-";"-";"-";"Served";"Unknown";"";"VBN"
"257114";"Q";"de:01004:66078::2";"de:01004:66078";"Neumünster Freesencenter";"54,069998";"9,93969";"00000000";"-";"-";"-";"Served";"Unknown";"";"VBN"
"257115";"S";"de:01004:66079";"de:01004:66079";"Neumünster Fuchsweg";"54,052249";"9,961476";"01004000";"Neumünster";"";"";"Served";"Unknown";"";"VBN"
"257116";"Q";"de:01004:66079::1";"de:01004:66079";"Neumünster Fuchsweg";"54,052249";"9,961476";"00000000";"-";"-";"-";"Served";"Unknown";"";"VBN"
"257117";"Q";"de:01004:66079::2";"de:01004:66079";"Neumünster Fuchsweg";"54,052181";"9,961517";"00000000";"-";"-";"-";"Served";"Unknown";"";"VBN"
"257118";"S";"de:01004:66080";"de:01004:66080";"Neumünster Fuhrkamp";"54,119835";"9,991781";"01004000";"Neumünster";"";"";"Served";"Unknown";"";"VBN"
"257119";"Q";"de:01004:66080::1";"de:01004:66080";"Neumünster Fuhrkamp";"54,119778";"9,991888";"00000000";"-";"-";"-";"Served";"Unknown";"";"VBN"
"257120";"Q";"de:01004:66080::2";"de:01004:66080";"Neumünster Fuhrkamp";"54,119909";"9,991623";"00000000";"-";"-";"-";"Served";"Unknown";"";"VBN"
"257121";"S";"de:01004:66081";"de:01004:66081";"Neumünster Färberstraße";"54,078684";"9,972833";"01004000";"Neumünster";"";"";"Served";"Unknown";"";"VBN"
"257122";"Q";"de:01004:66081::1";"de:01004:66081";"Neumünster Färberstraße";"54,078795";"9,972675";"00000000";"-";"-";"-";"Served";"Unknown";"";"VBN"
"257123";"Q";"de:01004:66081::2";"de:01004:66081";"Neumünster Färberstraße";"54,078587";"9,972872";"00000000";"-";"-";"-";"Served";"Unknown";"";"VBN"
"257124";"S";"de:01004:66082";"de:01004:66082";"Neumünster Gadelander Straße";"54,053321";"10,000713";"01004000";"Neumünster";"";"";"Served";"Unknown";"";"VBN"
"257125";"Q";"de:01004:66082::1";"de:01004:66082";"Neumünster Gadelander Straße";"54,05327";"10,000944";"00000000";"-";"-";"-";"Served";"Unknown";"";"VBN"
"257126";"Q";"de:01004:66082::2";"de:01004:66082";"Neumünster Gadelander Straße";"54,053418";"10,000526";"00000000";"-";"-";"-";"Served";"Unknown";"";"VBN"
"257127";"S";"de:01004:66083";"de:01004:66083";"Neumünster Gartenstadtschule";"54,091766";"9,967109";"01004000";"Neumünster";"";"";"Served";"Unknown";"";"VBN"
"257128";"Q";"de:01004:66083::1";"de:01004:66083";"Neumünster Gartenstadtschule";"54,091722";"9,966892";"00000000";"-";"-";"-";"Served";"Unknown";"";"VBN"
"257129";"Q";"de:01004:66083::2";"de:01004:66083";"Neumünster Gartenstadtschule";"54,091747";"9,967168";"00000000";"-";"-";"-";"Served";"Unknown";"";"VBN"
"257130";"S";"de:01004:66084";"de:01004:66084";"Neumünster Gemeindehaus";"54,121706";"9,982876";"01004000";"Neumünster";"";"";"Served";"Unknown";"";"VBN"
"257131";"Q";"de:01004:66084::1";"de:01004:66084";"Neumünster Gemeindehaus";"54,121706";"9,982876";"00000000";"-";"-";"-";"Served";"Unknown";"";"VBN"
"257132";"Q";"de:01004:66084::2";"de:01004:66084";"Neumünster Gemeindehaus";"54,121521";"9,98298";"00000000";"-";"-";"-";"Served";"Unknown";"";"VBN"
"257133";"S";"de:01004:66085";"de:01004:66085";"Neumünster Gerhard-Hauptmann-Platz";"54,076624";"9,962651";"01004000";"Neumünster";"";"";"Served";"Unknown";"";"VBN"
"257134";"Q";"de:01004:66085::1";"de:01004:66085";"Neumünster Gerhard-Hauptmann-Platz";"54,076691";"9,962829";"00000000";"-";"-";"-";"Served";"Unknown";"";"VBN"
"257135";"S";"de:01004:66086";"de:01004:66086";"Neumünster Graskamp";"54,106372";"10,011884";"01004000";"Neumünster";"";"";"Served";"Unknown";"";"VBN"
"257136";"Q";"de:01004:66086::1";"de:01004:66086";"Neumünster Graskamp";"54,106372";"10,011884";"00000000";"-";"-";"-";"Served";"Unknown";"";"VBN"
"257137";"Q";"de:01004:66086::2";"de:01004:66086";"Neumünster Graskamp";"54,106372";"10,011936";"00000000";"-";"-";"-";"Served";"Unknown";"";"VBN"
"257138";"S";"de:01004:66087";"de:01004:66087";"Neumünster Grellenkamp";"54,052282";"10,031829";"01004000";"Neumünster";"";"";"Served";"Unknown";"";"VBN"
"257139";"Q";"de:01004:66087::1";"de:01004:66087";"Neumünster Grellenkamp";"54,052282";"10,031829";"00000000";"-";"-";"-";"Served";"Unknown";"";"VBN"
"257140";"S";"de:01004:66088";"de:01004:66088";"Neumünster Grellenkamp/Husberger Weg";"54,052629";"10,034048";"01004000";"Neumünster";"";"";"Served";"Unknown";"";"VBN"
"257141";"Q";"de:01004:66088::1";"de:01004:66088";"Neumünster Grellenkamp/Husberger Weg";"54,052641";"10,033915";"00000000";"-";"-";"-";"Served";"Unknown";"";"VBN"
"257142";"S";"de:01004:66089";"de:01004:66089";"Neumünster Gutenbergstraße";"54,084292";"9,985383";"01004000";"Neumünster";"";"";"Served";"Unknown";"";"VBN"
"257143";"Q";"de:01004:66089::1";"de:01004:66089";"Neumünster Gutenbergstraße";"54,084417";"9,98548";"00000000";"-";"-";"-";"Served";"Unknown";"";"VBN"
"257144";"Q";"de:01004:66089::2";"de:01004:66089";"Neumünster Gutenbergstraße";"54,083996";"9,985256";"00000000";"-";"-";"-";"Served";"Unknown";"";"VBN"
"257145";"S";"de:01004:66090";"de:01004:66090";"Neumünster Haberstraße 18";"54,102407";"9,970831";"01004000";"Neumünster";"";"";"Served";"Unknown";"";"VBN"
"257146";"Q";"de:01004:66090::1";"de:01004:66090";"Neumünster Haberstraße 18";"54,102407";"9,970831";"00000000";"-";"-";"-";"Served";"Unknown";"";"VBN"
"257147";"S";"de:01004:66091";"de:01004:66091";"Neumünster Haberstraße 36";"54,105642";"9,969607";"01004000";"Neumünster";"";"";"Served";"Unknown";"";"VBN"
"257148";"Q";"de:01004:66091::1";"de:01004:66091";"Neumünster Haberstraße 36";"54,105642";"9,969607";"00000000";"-";"-";"-";"Served";"Unknown";"";"VBN"
"257149";"S";"de:01004:66092";"de:01004:66092";"Neumünster Haberstraße 44";"54,108352";"9,967835";"01004000";"Neumünster";"";"";"Served";"Unknown";"";"VBN"
"257150";"Q";"de:01004:66092::1";"de:01004:66092";"Neumünster Haberstraße 44";"54,108352";"9,967835";"00000000";"-";"-";"-";"Served";"Unknown";"";"VBN"
"257151";"S";"de:01004:66093";"de:01004:66093";"Neumünster Hagedornbusch";"54,094571";"9,995723";"01004000";"Neumünster";"";"";"Served";"Unknown";"";"VBN"
"257152";"Q";"de:01004:66093::1";"de:01004:66093";"Neumünster Hagedornbusch";"54,094515";"9,995786";"00000000";"-";"-";"-";"Served";"Unknown";"";"VBN"
"257153";"Q";"de:01004:66093::2";"de:01004:66093";"Neumünster Hagedornbusch";"54,094617";"9,995668";"00000000";"-";"-";"-";"Served";"Unknown";"";"VBN"
"257154";"S";"de:01004:66094";"de:01004:66094";"Neumünster Hansaring";"54,070203";"9,973632";"01004000";"Neumünster";"";"";"Served";"Unknown";"";"VBN"
"257155";"Q";"de:01004:66094::1";"de:01004:66094";"Neumünster Hansaring";"54,070223";"9,973529";"00000000";"-";"-";"-";"Served";"Unknown";"";"VBN"
"257156";"S";"de:01004:66095";"de:01004:66095";"Neumünster Hartwigswalder Straße";"54,041216";"10,010941";"01004000";"Neumünster";"";"";"Served";"Unknown";"";"VBN"
"257157";"Q";"de:01004:66095::1";"de:01004:66095";"Neumünster Hartwigswalder Straße";"54,041127";"10,010862";"00000000";"-";"-";"-";"Served";"Unknown";"";"VBN"
"257158";"Q";"de:01004:66095::2";"de:01004:66095";"Neumünster Hartwigswalder Straße";"54,041277";"10,01097";"00000000";"-";"-";"-";"Served";"Unknown";"";"VBN"
"257159";"S";"de:01004:66096";"de:01004:66096";"Neumünster Harweh";"54,045687";"10,002277";"01004000";"Neumünster";"";"";"Served";"Unknown";"";"VBN"
"257160";"Q";"de:01004:66096::1";"de:01004:66096";"Neumünster Harweh";"54,045668";"10,002348";"00000000";"-";"-";"-";"Served";"Unknown";"";"VBN"
"257161";"S";"de:01004:66097";"de:01004:66097";"Neumünster Harwehgraben";"54,043893";"9,995724";"01004000";"Neumünster";"";"";"Served";"Unknown";"";"VBN"
"257162";"Q";"de:01004:66097::1";"de:01004:66097";"Neumünster Harwehgraben";"54,043893";"9,995724";"00000000";"-";"-";"-";"Served";"Unknown";"";"VBN"
"257163";"S";"de:01004:66098";"de:01004:66098";"Neumünster Hauptstraße";"54,075887";"10,003273";"01004000";"Neumünster";"";"";"Served";"Unknown";"";"VBN"
"257164";"Q";"de:01004:66098::1";"de:01004:66098";"Neumünster Hauptstraße";"54,075887";"10,003273";"00000000";"-";"-";"-";"Served";"Unknown";"";"VBN"
"257165";"Q";"de:01004:66098::2";"de:01004:66098";"Neumünster Hauptstraße";"54,075826";"10,003302";"00000000";"-";"-";"-";"Served";"Unknown";"";"VBN"
"257166";"S";"de:01004:66099";"de:01004:66099";"Neumünster Haus 46/Störwiesen";"54,056476";"9,988618";"01004000";"Neumünster";"";"";"Served";"Unknown";"";"VBN"
"257167";"Q";"de:01004:66099::1";"de:01004:66099";"Neumünster Haus 46/Störwiesen";"54,056476";"9,988618";"00000000";"-";"-";"-";"Served";"Unknown";"";"VBN"
"257168";"S";"de:01004:66100";"de:01004:66100";"Neumünster Havelstraße";"54,045396";"9,97216";"01004000";"Neumünster";"";"";"Served";"Unknown";"";"VBN"
"257169";"Q";"de:01004:66100::1";"de:01004:66100";"Neumünster Havelstraße";"54,045359";"9,972239";"00000000";"-";"-";"-";"Served";"Unknown";"";"VBN"
"257170";"S";"de:01004:66101";"de:01004:66101";"Neumünster Havelstraße 10";"54,046971";"9,977387";"01004000";"Neumünster";"";"";"Served";"Unknown";"";"VBN"
"257171";"Q";"de:01004:66101::1";"de:01004:66101";"Neumünster Havelstraße 10";"54,046921";"9,977414";"00000000";"-";"-";"-";"Served";"Unknown";"";"VBN"
"257172";"S";"de:01004:66102";"de:01004:66102";"Neumünster Havelstraße 26";"54,046682";"9,981012";"01004000";"Neumünster";"";"";"Served";"Unknown";"";"VBN"
"257173";"Q";"de:01004:66102::1";"de:01004:66102";"Neumünster Havelstraße 26";"54,046837";"9,982131";"00000000";"-";"-";"-";"Served";"Unknown";"";"VBN"
"257174";"S";"de:01004:66103";"de:01004:66103";"Neumünster Heischredder";"54,073197";"10,021846";"01004000";"Neumünster";"";"";"Served";"Unknown";"";"VBN"
"257175";"Q";"de:01004:66103::1";"de:01004:66103";"Neumünster Heischredder";"54,073197";"10,021846";"00000000";"-";"-";"-";"Served";"Unknown";"";"VBN"
"257176";"S";"de:01004:66104";"de:01004:66104";"Neumünster Helmoldstraße";"54,058961";"9,971436";"01004000";"Neumünster";"";"";"Served";"Unknown";"";"VBN"
"257177";"Q";"de:01004:66104::1";"de:01004:66104";"Neumünster Helmoldstraße";"54,058731";"9,971084";"00000000";"-";"-";"-";"Served";"Unknown";"";"VBN"
"257178";"Q";"de:01004:66104::2";"de:01004:66104";"Neumünster Helmoldstraße";"54,0589";"9,971442";"00000000";"-";"-";"-";"Served";"Unknown";"";"VBN"
"257179";"S";"de:01004:66105";"de:01004:66105";"Neumünster Helmut-Loose-Platz";"54,098717";"9,995699";"01004000";"Neumünster";"";"";"Served";"Unknown";"";"VBN"
"257180";"Q";"de:01004:66105::1";"de:01004:66105";"Neumünster Helmut-Loose-Platz";"54,098916";"9,995786";"00000000";"-";"-";"-";"Served";"Unknown";"";"VBN"
"257181";"Q";"de:01004:66105::2";"de:01004:66105";"Neumünster Helmut-Loose-Platz";"54,098471";"9,995661";"00000000";"-";"-";"-";"Served";"Unknown";"";"VBN"
"257182";"S";"de:01004:66106";"de:01004:66106";"Neumünster Holsatenring";"54,06404";"9,979909";"01004000";"Neumünster";"";"";"Served";"Unknown";"";"VBN"
"257183";"Q";"de:01004:66106::1";"de:01004:66106";"Neumünster Holsatenring";"54,06404";"9,979909";"00000000";"-";"-";"-";"Served";"Unknown";"";"VBN"
"257184";"Q";"de:01004:66106::2";"de:01004:66106";"Neumünster Holsatenring";"54,064074";"9,979845";"00000000";"-";"-";"-";"Served";"Unknown";"";"VBN"
"257185";"S";"de:01004:66107";"de:01004:66107";"Neumünster Holstenhallen";"54,092545";"9,974151";"01004000";"Neumünster";"";"";"Served";"Unknown";"";"VBN"
"257186";"Q";"de:01004:66107::1";"de:01004:66107";"Neumünster Holstenhallen";"54,092245";"9,974092";"00000000";"-";"-";"-";"Served";"Unknown";"";"VBN"
"257187";"Q";"de:01004:66107::2";"de:01004:66107";"Neumünster Holstenhallen";"54,092309";"9,974383";"00000000";"-";"-";"-";"Served";"Unknown";"";"VBN"
"257188";"Q";"de:01004:66107::3";"de:01004:66107";"Neumünster Holstenhallen";"54,092416";"9,974523";"00000000";"-";"-";"-";"Served";"Unknown";"";"VBN"
"257189";"S";"de:01004:66108";"de:01004:66108";"Neumünster Holstenschule";"54,066379";"9,987265";"01004000";"Neumünster";"";"";"Served";"Unknown";"";"VBN"
"257190";"Q";"de:01004:66108::1";"de:01004:66108";"Neumünster Holstenschule";"54,065997";"9,986893";"00000000";"-";"-";"-";"Served";"Unknown";"";"VBN"
"257191";"Q";"de:01004:66108::2";"de:01004:66108";"Neumünster Holstenschule";"54,066815";"9,987712";"00000000";"-";"-";"-";"Served";"Unknown";"";"VBN"
"257192";"S";"de:01004:66109";"de:01004:66109";"Neumünster Husumer Straße";"54,056938";"9,937979";"01004000";"Neumünster";"";"";"Served";"Unknown";"";"VBN"
"257193";"Q";"de:01004:66109::1";"de:01004:66109";"Neumünster Husumer Straße";"54,056975";"9,938311";"00000000";"-";"-";"-";"Served";"Unknown";"";"VBN"
"257194";"Q";"de:01004:66109::2";"de:01004:66109";"Neumünster Husumer Straße";"54,056891";"9,937607";"00000000";"-";"-";"-";"Served";"Unknown";"";"VBN"
"257195";"S";"de:01004:66110";"de:01004:66110";"Neumünster Hüttenkamp";"54,117686";"9,994922";"01004000";"Neumünster";"";"";"Served";"Unknown";"";"VBN"
"257196";"Q";"de:01004:66110::1";"de:01004:66110";"Neumünster Hüttenkamp";"54,118254";"9,995199";"00000000";"-";"-";"-";"Served";"Unknown";"";"VBN"
"257197";"Q";"de:01004:66110::2";"de:01004:66110";"Neumünster Hüttenkamp";"54,117807";"9,994843";"00000000";"-";"-";"-";"Served";"Unknown";"";"VBN"
"257198";"S";"de:01004:66111";"de:01004:66111";"Neumünster IGS Brachenfeld";"54,071795";"10,007448";"01004000";"Neumünster";"";"";"Served";"Unknown";"";"VBN"
"257199";"Q";"de:01004:66111::1";"de:01004:66111";"Neumünster IGS Brachenfeld";"54,071795";"10,007448";"00000000";"-";"-";"-";"Served";"Unknown";"";"VBN"
"257200";"Q";"de:01004:66111::2";"de:01004:66111";"Neumünster IGS Brachenfeld";"54,071659";"10,008451";"00000000";"-";"-";"-";"Served";"Unknown";"";"VBN"
"257201";"Q";"de:01004:66111::3";"de:01004:66111";"Neumünster IGS Brachenfeld";"54,071591";"10,008526";"00000000";"-";"-";"-";"Served";"Unknown";"";"VBN"
"257202";"S";"de:01004:66112";"de:01004:66112";"Neumünster IGS Faldera";"54,064752";"9,966418";"01004000";"Neumünster";"";"";"Served";"Unknown";"";"VBN"
"257203";"Q";"de:01004:66112::1";"de:01004:66112";"Neumünster IGS Faldera";"54,064752";"9,966418";"00000000";"-";"-";"-";"Served";"Unknown";"";"VBN"
"257204";"S";"de:01004:66113";"de:01004:66113";"Neumünster Ilsahl";"54,085384";"9,996924";"01004000";"Neumünster";"";"";"Served";"Unknown";"";"VBN"
"257205";"Q";"de:01004:66113::1";"de:01004:66113";"Neumünster Ilsahl";"54,084946";"9,996499";"00000000";"-";"-";"-";"Served";"Unknown";"";"VBN"
"257206";"Q";"de:01004:66113::2";"de:01004:66113";"Neumünster Ilsahl";"54,085805";"9,997287";"00000000";"-";"-";"-";"Served";"Unknown";"";"VBN"
"257207";"S";"de:01004:66114";"de:01004:66114";"Neumünster Iltisweg";"54,04982";"9,96855";"01004000";"Neumünster";"";"";"Served";"Unknown";"";"VBN"
"257208";"Q";"de:01004:66114::1";"de:01004:66114";"Neumünster Iltisweg";"54,04982";"9,96855";"00000000";"-";"-";"-";"Served";"Unknown";"";"VBN"
"257209";"S";"de:01004:66115";"de:01004:66115";"Neumünster Industriestraße";"54,121518";"9,996078";"01004000";"Neumünster";"";"";"Served";"Unknown";"";"VBN"
"257210";"Q";"de:01004:66115::1";"de:01004:66115";"Neumünster Industriestraße";"54,121415";"9,995997";"00000000";"-";"-";"-";"Served";"Unknown";"";"VBN"
"257211";"Q";"de:01004:66115::2";"de:01004:66115";"Neumünster Industriestraße";"54,12162";"9,996188";"00000000";"-";"-";"-";"Served";"Unknown";"";"VBN"
"257212";"S";"de:01004:66116";"de:01004:66116";"Neumünster Joachimstraße";"54,077964";"9,987861";"01004000";"Neumünster";"";"";"Served";"Unknown";"";"VBN"
"257213";"Q";"de:01004:66116::1";"de:01004:66116";"Neumünster Joachimstraße";"54,078171";"9,988049";"00000000";"-";"-";"-";"Served";"Unknown";"";"VBN"
"257214";"Q";"de:01004:66116::2";"de:01004:66116";"Neumünster Joachimstraße";"54,077782";"9,987829";"00000000";"-";"-";"-";"Served";"Unknown";"";"VBN"
"257215";"S";"de:01004:66117";"de:01004:66117";"Neumünster Jungmannstraße";"54,087557";"9,999712";"01004000";"Neumünster";"";"";"Served";"Unknown";"";"VBN"
"257216";"Q";"de:01004:66117::1";"de:01004:66117";"Neumünster Jungmannstraße";"54,087497";"9,999704";"00000000";"-";"-";"-";"Served";"Unknown";"";"VBN"
"257217";"Q";"de:01004:66117::2";"de:01004:66117";"Neumünster Jungmannstraße";"54,087622";"9,999696";"00000000";"-";"-";"-";"Served";"Unknown";"";"VBN"
"257218";"S";"de:01004:66118";"de:01004:66118";"Neumünster Kampstraße";"54,049826";"10,003882";"01004000";"Neumünster";"";"";"Served";"Unknown";"";"VBN"
"257219";"Q";"de:01004:66118::1";"de:01004:66118";"Neumünster Kampstraße";"54,049915";"10,003497";"00000000";"-";"-";"-";"Served";"Unknown";"";"VBN"
"257220";"Q";"de:01004:66118::2";"de:01004:66118";"Neumünster Kampstraße";"54,049723";"10,003889";"00000000";"-";"-";"-";"Served";"Unknown";"";"VBN"
"257221";"Q";"de:01004:66118::3";"de:01004:66118";"Neumünster Kampstraße";"54,049586";"10,004161";"00000000";"-";"-";"-";"Served";"Unknown";"";"VBN"
"257222";"S";"de:01004:66119";"de:01004:66119";"Neumünster Kantplatz";"54,076744";"9,958976";"01004000";"Neumünster";"";"";"Served";"Unknown";"";"VBN"
"257223";"Q";"de:01004:66119::1";"de:01004:66119";"Neumünster Kantplatz";"54,076721";"9,959024";"00000000";"-";"-";"-";"Served";"Unknown";"";"VBN"
"257224";"S";"de:01004:66120";"de:01004:66120";"Neumünster Karl-Feldmann-Straße";"54,12889";"9,990574";"01004000";"Neumünster";"";"";"Served";"Unknown";"";"VBN"
"257225";"Q";"de:01004:66120::1";"de:01004:66120";"Neumünster Karl-Feldmann-Straße";"54,128853";"9,990511";"00000000";"-";"-";"-";"Served";"Unknown";"";"VBN"
"257226";"S";"de:01004:66121";"de:01004:66121";"Neumünster Kaserne";"54,063821";"10,000034";"01004000";"Neumünster";"";"";"Served";"Unknown";"";"VBN"
"257227";"Q";"de:01004:66121::1";"de:01004:66121";"Neumünster Kaserne";"54,063871";"9,999783";"00000000";"-";"-";"-";"Served";"Unknown";"";"VBN"
"257228";"Q";"de:01004:66121::2";"de:01004:66121";"Neumünster Kaserne";"54,063923";"10,000109";"00000000";"-";"-";"-";"Served";"Unknown";"";"VBN"
"257229";"S";"de:01004:66122";"de:01004:66122";"Neumünster Katzensteig";"54,103803";"9,991043";"01004000";"Neumünster";"";"";"Served";"Unknown";"";"VBN"
"257230";"Q";"de:01004:66122::1";"de:01004:66122";"Neumünster Katzensteig";"54,103722";"9,990818";"00000000";"-";"-";"-";"Served";"Unknown";"";"VBN"
"257231";"Q";"de:01004:66122::2";"de:01004:66122";"Neumünster Katzensteig";"54,104135";"9,991132";"00000000";"-";"-";"-";"Served";"Unknown";"";"VBN"
"257232";"S";"de:01004:66123";"de:01004:66123";"Neumünster Keilerweg";"54,049806";"9,963557";"01004000";"Neumünster";"";"";"Served";"Unknown";"";"VBN"
"257233";"Q";"de:01004:66123::1";"de:01004:66123";"Neumünster Keilerweg";"54,049806";"9,963557";"00000000";"-";"-";"-";"Served";"Unknown";"";"VBN"
"257234";"S";"de:01004:66124";"de:01004:66124";"Neumünster Kiefernweg";"54,056567";"9,968555";"01004000";"Neumünster";"";"";"Served";"Unknown";"";"VBN"
"257235";"Q";"de:01004:66124::1";"de:01004:66124";"Neumünster Kiefernweg";"54,056567";"9,968555";"00000000";"-";"-";"-";"Served";"Unknown";"";"VBN"
"257236";"Q";"de:01004:66124::2";"de:01004:66124";"Neumünster Kiefernweg";"54,05654";"9,968642";"00000000";"-";"-";"-";"Served";"Unknown";"";"VBN"
"257237";"S";"de:01004:66125";"de:01004:66125";"Neumünster Kiek In/VHS";"54,065545";"9,982648";"01004000";"Neumünster";"";"";"Served";"Unknown";"";"VBN"
"257238";"Q";"de:01004:66125::1";"de:01004:66125";"Neumünster Kiek In/VHS";"54,065545";"9,982648";"00000000";"-";"-";"-";"Served";"Unknown";"";"VBN"
"257239";"Q";"de:01004:66125::2";"de:01004:66125";"Neumünster Kiek In/VHS";"54,065565";"9,982747";"00000000";"-";"-";"-";"Served";"Unknown";"";"VBN"
"257240";"S";"de:01004:66126";"de:01004:66126";"Neumünster Kieler Straße 269";"54,094389";"9,988224";"01004000";"Neumünster";"";"";"Served";"Unknown";"";"VBN"
"257241";"Q";"de:01004:66126::1";"de:01004:66126";"Neumünster Kieler Straße 269";"54,09445";"9,988125";"00000000";"-";"-";"-";"Served";"Unknown";"";"VBN"
"257242";"S";"de:01004:66127";"de:01004:66127";"Neumünster Kieler Straße 270";"54,094891";"9,98832";"01004000";"Neumünster";"";"";"Served";"Unknown";"";"VBN"
"257243";"Q";"de:01004:66127::1";"de:01004:66127";"Neumünster Kieler Straße 270";"54,094891";"9,988465";"00000000";"-";"-";"-";"Served";"Unknown";"";"VBN"
"257244";"S";"de:01004:66128";"de:01004:66128";"Neumünster Kielius";"54,074718";"9,9801";"01004000";"Neumünster";"";"";"Served";"Unknown";"";"VBN"
"257245";"Q";"de:01004:66128::1";"de:01004:66128";"Neumünster Kielius";"54,074718";"9,9801";"00000000";"-";"-";"-";"Served";"Unknown";"";"VBN"
"257246";"S";"de:01004:66129";"de:01004:66129";"Neumünster Kleinflecken";"54,072126";"9,980801";"01004000";"Neumünster";"";"";"Served";"Unknown";"";"VBN"
"257247";"Q";"de:01004:66129::1";"de:01004:66129";"Neumünster Kleinflecken";"54,07175";"9,980572";"00000000";"-";"-";"-";"Served";"Unknown";"";"VBN"
"257248";"Q";"de:01004:66129::2";"de:01004:66129";"Neumünster Kleinflecken";"54,07214";"9,979877";"00000000";"-";"-";"-";"Served";"Unknown";"";"VBN"
"257249";"S";"de:01004:66130";"de:01004:66130";"Neumünster Klinik Hahnknüll";"54,097555";"9,94768";"01004000";"Neumünster";"";"";"Served";"Unknown";"";"VBN"
"257250";"Q";"de:01004:66130::1";"de:01004:66130";"Neumünster Klinik Hahnknüll";"54,097555";"9,947729";"00000000";"-";"-";"-";"Served";"Unknown";"";"VBN"
"257251";"S";"de:01004:66131";"de:01004:66131";"Neumünster Krankenhaus";"54,065277";"9,990283";"01004000";"Neumünster";"";"";"Served";"Unknown";"";"VBN"
"257252";"Q";"de:01004:66131::1";"de:01004:66131";"Neumünster Krankenhaus";"54,065522";"9,990248";"00000000";"-";"-";"-";"Served";"Unknown";"";"VBN"
"257253";"Q";"de:01004:66131::2";"de:01004:66131";"Neumünster Krankenhaus";"54,06489";"9,990383";"00000000";"-";"-";"-";"Served";"Unknown";"";"VBN"
"257254";"S";"de:01004:66132";"de:01004:66132";"Neumünster Kreuzkamp";"54,117602";"9,981946";"01004000";"Neumünster";"";"";"Served";"Unknown";"";"VBN"
"257255";"Q";"de:01004:66132::1";"de:01004:66132";"Neumünster Kreuzkamp";"54,117848";"9,98182";"00000000";"-";"-";"-";"Served";"Unknown";"";"VBN"
"257256";"Q";"de:01004:66132::2";"de:01004:66132";"Neumünster Kreuzkamp";"54,117403";"9,982033";"00000000";"-";"-";"-";"Served";"Unknown";"";"VBN"
"257257";"S";"de:01004:66133";"de:01004:66133";"Neumünster Krimm/Neuenbrook";"54,11738";"9,95279";"01004000";"Neumünster";"";"";"Served";"Unknown";"";"VBN"
"257258";"Q";"de:01004:66133::1";"de:01004:66133";"Neumünster Krimm/Neuenbrook";"54,11738";"9,95279";"00000000";"-";"-";"-";"Served";"Unknown";"";"VBN"
"257259";"S";"de:01004:66134";"de:01004:66134";"Neumünster Krokamp";"54,050346";"9,974655";"01004000";"Neumünster";"";"";"Served";"Unknown";"";"VBN"
"257260";"Q";"de:01004:66134::1";"de:01004:66134";"Neumünster Krokamp";"54,050385";"9,974746";"00000000";"-";"-";"-";"Served";"Unknown";"";"VBN"
"257261";"S";"de:01004:66135";"de:01004:66135";"Neumünster Krokusweg";"54,098874";"10,006742";"01004000";"Neumünster";"";"";"Served";"Unknown";"";"VBN"
"257262";"Q";"de:01004:66135::1";"de:01004:66135";"Neumünster Krokusweg";"54,098809";"10,006687";"00000000";"-";"-";"-";"Served";"Unknown";"";"VBN"
"257263";"Q";"de:01004:66135::2";"de:01004:66135";"Neumünster Krokusweg";"54,098911";"10,006821";"00000000";"-";"-";"-";"Served";"Unknown";"";"VBN"
"257264";"S";"de:01004:66136";"de:01004:66136";"Neumünster Krummacker";"54,124213";"9,98433";"01004000";"Neumünster";"";"";"Served";"Unknown";"";"VBN"
"257265";"Q";"de:01004:66136::1";"de:01004:66136";"Neumünster Krummacker";"54,124269";"9,984283";"00000000";"-";"-";"-";"Served";"Unknown";"";"VBN"
"257266";"Q";"de:01004:66136::2";"de:01004:66136";"Neumünster Krummacker";"54,124176";"9,984354";"00000000";"-";"-";"-";"Served";"Unknown";"";"VBN"
"257267";"S";"de:01004:66137";"de:01004:66137";"Neumünster Käthe-Kollwitz-Straße";"54,068197";"10,018134";"01004000";"Neumünster";"";"";"Served";"Unknown";"";"VBN"
"257268";"Q";"de:01004:66137::1";"de:01004:66137";"Neumünster Käthe-Kollwitz-Straße";"54,067254";"10,018299";"00000000";"-";"-";"-";"Served";"Unknown";"";"VBN"
"257269";"Q";"de:01004:66137::2";"de:01004:66137";"Neumünster Käthe-Kollwitz-Straße";"54,067212";"10,018457";"00000000";"-";"-";"-";"Served";"Unknown";"";"VBN"
"257270";"S";"de:01004:66138";"de:01004:66138";"Neumünster Lahnstraße";"54,048104";"10,001367";"01004000";"Neumünster";"";"";"Served";"Unknown";"";"VBN"
"257271";"Q";"de:01004:66138::1";"de:01004:66138";"Neumünster Lahnstraße";"54,048104";"10,001367";"00000000";"-";"-";"-";"Served";"Unknown";"";"VBN"
"257272";"S";"de:01004:66139";"de:01004:66139";"Neumünster Langjähren";"54,089558";"10,003464";"01004000";"Neumünster";"";"";"Served";"Unknown";"";"VBN"
"257273";"Q";"de:01004:66139::1";"de:01004:66139";"Neumünster Langjähren";"54,089615";"10,003644";"00000000";"-";"-";"-";"Served";"Unknown";"";"VBN"
"257274";"Q";"de:01004:66139::2";"de:01004:66139";"Neumünster Langjähren";"54,089438";"10,003156";"00000000";"-";"-";"-";"Served";"Unknown";"";"VBN"
"257275";"S";"de:01004:66140";"de:01004:66140";"Neumünster Legienstraße";"54,075499";"9,961257";"01004000";"Neumünster";"";"";"Served";"Unknown";"";"VBN"
"257276";"Q";"de:01004:66140::1";"de:01004:66140";"Neumünster Legienstraße";"54,075499";"9,961257";"00000000";"-";"-";"-";"Served";"Unknown";"";"VBN"
"257277";"S";"de:01004:66141";"de:01004:66141";"Neumünster Liegnitzer Straße";"54,067763";"9,957882";"01004000";"Neumünster";"";"";"Served";"Unknown";"";"VBN"
"257278";"Q";"de:01004:66141::1";"de:01004:66141";"Neumünster Liegnitzer Straße";"54,067413";"9,957357";"00000000";"-";"-";"-";"Served";"Unknown";"";"VBN"
"257279";"Q";"de:01004:66141::2";"de:01004:66141";"Neumünster Liegnitzer Straße";"54,068112";"9,957694";"00000000";"-";"-";"-";"Served";"Unknown";"";"VBN"
"257280";"Q";"de:01004:66141::3";"de:01004:66141";"Neumünster Liegnitzer Straße";"54,068046";"9,958221";"00000000";"-";"-";"-";"Served";"Unknown";"";"VBN"
"257281";"S";"de:01004:66142";"de:01004:66142";"Neumünster Luisenstraße";"54,078856";"9,979278";"01004000";"Neumünster";"";"";"Served";"Unknown";"";"VBN"
"257282";"Q";"de:01004:66142::1";"de:01004:66142";"Neumünster Luisenstraße";"54,078837";"9,979397";"00000000";"-";"-";"-";"Served";"Unknown";"";"VBN"
"257283";"Q";"de:01004:66142::2";"de:01004:66142";"Neumünster Luisenstraße";"54,078883";"9,97916";"00000000";"-";"-";"-";"Served";"Unknown";"";"VBN"
"257284";"S";"de:01004:66143";"de:01004:66143";"Neumünster Mainstraße";"54,04765";"9,989019";"01004000";"Neumünster";"";"";"Served";"Unknown";"";"VBN"
"257285";"Q";"de:01004:66143::1";"de:01004:66143";"Neumünster Mainstraße";"54,04765";"9,989019";"00000000";"-";"-";"-";"Served";"Unknown";"";"VBN"
"257286";"S";"de:01004:66144";"de:01004:66144";"Neumünster Marderweg";"54,046558";"9,965253";"01004000";"Neumünster";"";"";"Served";"Unknown";"";"VBN"
"257287";"Q";"de:01004:66144::1";"de:01004:66144";"Neumünster Marderweg";"54,046558";"9,965253";"00000000";"-";"-";"-";"Served";"Unknown";"";"VBN"
"257288";"S";"de:01004:66145";"de:01004:66145";"Neumünster Meisenweg";"54,070297";"9,96441";"01004000";"Neumünster";"";"";"Served";"Unknown";"";"VBN"
"257289";"Q";"de:01004:66145::1";"de:01004:66145";"Neumünster Meisenweg";"54,070432";"9,964758";"00000000";"-";"-";"-";"Served";"Unknown";"";"VBN"
"257290";"Q";"de:01004:66145::2";"de:01004:66145";"Neumünster Meisenweg";"54,070165";"9,964007";"00000000";"-";"-";"-";"Served";"Unknown";"";"VBN"
"257291";"S";"de:01004:66146";"de:01004:66146";"Neumünster Meldorfer Straße";"54,057954";"9,943282";"01004000";"Neumünster";"";"";"Served";"Unknown";"";"VBN"
"257292";"Q";"de:01004:66146::1";"de:01004:66146";"Neumünster Meldorfer Straße";"54,058136";"9,943868";"00000000";"-";"-";"-";"Served";"Unknown";"";"VBN"
"257293";"Q";"de:01004:66146::2";"de:01004:66146";"Neumünster Meldorfer Straße";"54,0578";"9,942945";"00000000";"-";"-";"-";"Served";"Unknown";"";"VBN"
"257294";"S";"de:01004:66147";"de:01004:66147";"Neumünster Mühle";"54,055816";"10,018213";"01004000";"Neumünster";"";"";"Served";"Unknown";"";"VBN"
"257295";"Q";"de:01004:66147::1";"de:01004:66147";"Neumünster Mühle";"54,055974";"10,018309";"00000000";"-";"-";"-";"Served";"Unknown";"";"VBN"
"257296";"Q";"de:01004:66147::2";"de:01004:66147";"Neumünster Mühle";"54,055756";"10,01811";"00000000";"-";"-";"-";"Served";"Unknown";"";"VBN"
"257297";"S";"de:01004:66148";"de:01004:66148";"Neumünster Mühlenstraße";"54,053556";"9,976562";"01004000";"Neumünster";"";"";"Served";"Unknown";"";"VBN"
"257298";"Q";"de:01004:66148::1";"de:01004:66148";"Neumünster Mühlenstraße";"54,053397";"9,976308";"00000000";"-";"-";"-";"Served";"Unknown";"";"VBN"
"257299";"Q";"de:01004:66148::2";"de:01004:66148";"Neumünster Mühlenstraße";"54,053498";"9,976591";"00000000";"-";"-";"-";"Served";"Unknown";"";"VBN"
"257300";"S";"de:01004:66149";"de:01004:66149";"Neumünster Neue Straße";"54,12884";"9,996176";"01004000";"Neumünster";"";"";"Served";"Unknown";"";"VBN"
"257301";"Q";"de:01004:66149::1";"de:01004:66149";"Neumünster Neue Straße";"54,128928";"9,996232";"00000000";"-";"-";"-";"Served";"Unknown";"";"VBN"
"257302";"Q";"de:01004:66149::2";"de:01004:66149";"Neumünster Neue Straße";"54,128719";"9,995971";"00000000";"-";"-";"-";"Served";"Unknown";"";"VBN"
"257303";"S";"de:01004:66150";"de:01004:66150";"Neumünster Nobelstraße";"54,102693";"9,982941";"01004000";"Neumünster";"";"";"Served";"Unknown";"";"VBN"
"257304";"Q";"de:01004:66150::1";"de:01004:66150";"Neumünster Nobelstraße";"54,102679";"9,983043";"00000000";"-";"-";"-";"Served";"Unknown";"";"VBN"
"257305";"Q";"de:01004:66150::2";"de:01004:66150";"Neumünster Nobelstraße";"54,102757";"9,98283";"00000000";"-";"-";"-";"Served";"Unknown";"";"VBN"
"257306";"S";"de:01004:66151";"de:01004:66151";"Neumünster Noldestraße";"54,062028";"10,007063";"01004000";"Neumünster";"";"";"Served";"Unknown";"";"VBN"
"257307";"Q";"de:01004:66151::1";"de:01004:66151";"Neumünster Noldestraße";"54,061806";"10,007802";"00000000";"-";"-";"-";"Served";"Unknown";"";"VBN"
"257308";"Q";"de:01004:66151::2";"de:01004:66151";"Neumünster Noldestraße";"54,062474";"10,007528";"00000000";"-";"-";"-";"Served";"Unknown";"";"VBN"
"257309";"Q";"de:01004:66151::3";"de:01004:66151";"Neumünster Noldestraße";"54,062213";"10,006552";"00000000";"-";"-";"-";"Served";"Unknown";"";"VBN"
"257310";"S";"de:01004:66152";"de:01004:66152";"Neumünster Nordfriedhof";"54,07502";"9,999494";"01004000";"Neumünster";"";"";"Served";"Unknown";"";"VBN"
"257311";"Q";"de:01004:66152::1";"de:01004:66152";"Neumünster Nordfriedhof";"54,07502";"9,999494";"00000000";"-";"-";"-";"Served";"Unknown";"";"VBN"
"257312";"Q";"de:01004:66152::2";"de:01004:66152";"Neumünster Nordfriedhof";"54,07502";"9,999625";"00000000";"-";"-";"-";"Served";"Unknown";"";"VBN"
"257313";"S";"de:01004:66153";"de:01004:66153";"Neumünster Oberjörn";"54,091574";"10,000581";"01004000";"Neumünster";"";"";"Served";"Unknown";"";"VBN"
"257314";"Q";"de:01004:66153::1";"de:01004:66153";"Neumünster Oberjörn";"54,09162";"9,999981";"00000000";"-";"-";"-";"Served";"Unknown";"";"VBN"
"257315";"Q";"de:01004:66153::2";"de:01004:66153";"Neumünster Oberjörn";"54,091573";"10,001137";"00000000";"-";"-";"-";"Served";"Unknown";"";"VBN"
"257316";"Q";"de:01004:66153::3";"de:01004:66153";"Neumünster Oberjörn";"54,092304";"10,001202";"00000000";"-";"-";"-";"Served";"Unknown";"";"VBN"
"257317";"S";"de:01004:66154";"de:01004:66154";"Neumünster Ochsenweg";"54,048074";"9,970067";"01004000";"Neumünster";"";"";"Served";"Unknown";"";"VBN"
"257318";"Q";"de:01004:66154::1";"de:01004:66154";"Neumünster Ochsenweg";"54,047362";"9,969604";"00000000";"-";"-";"-";"Served";"Unknown";"";"VBN"
"257319";"S";"de:01004:66155";"de:01004:66155";"Neumünster Oderstraße 44";"54,04334";"9,985329";"01004000";"Neumünster";"";"";"Served";"Unknown";"";"VBN"
"257320";"Q";"de:01004:66155::1";"de:01004:66155";"Neumünster Oderstraße 44";"54,04334";"9,985329";"00000000";"-";"-";"-";"Served";"Unknown";"";"VBN"
"257321";"S";"de:01004:66156";"de:01004:66156";"Neumünster Oderstraße 50";"54,043587";"9,988068";"01004000";"Neumünster";"";"";"Served";"Unknown";"";"VBN"
"257322";"Q";"de:01004:66156::1";"de:01004:66156";"Neumünster Oderstraße 50";"54,043587";"9,988068";"00000000";"-";"-";"-";"Served";"Unknown";"";"VBN"
"257323";"S";"de:01004:66157";"de:01004:66157";"Neumünster Ohmstraße";"54,095476";"9,958309";"01004000";"Neumünster";"";"";"Served";"Unknown";"";"VBN"
"257324";"Q";"de:01004:66157::1";"de:01004:66157";"Neumünster Ohmstraße";"54,095499";"9,958231";"00000000";"-";"-";"-";"Served";"Unknown";"";"VBN"
"257325";"S";"de:01004:66158";"de:01004:66158";"Neumünster Op De Wisch";"54,054471";"10,02972";"01004000";"Neumünster";"";"";"Served";"Unknown";"";"VBN"
"257326";"Q";"de:01004:66158::1";"de:01004:66158";"Neumünster Op De Wisch";"54,054439";"10,029681";"00000000";"-";"-";"-";"Served";"Unknown";"";"VBN"
"257327";"S";"de:01004:66159";"de:01004:66159";"Neumünster Pappelweg";"54,106016";"10,003338";"01004000";"Neumünster";"";"";"Served";"Unknown";"";"VBN"
"257328";"Q";"de:01004:66159::1";"de:01004:66159";"Neumünster Pappelweg";"54,105913";"10,003273";"00000000";"-";"-";"-";"Served";"Unknown";"";"VBN"
"257329";"Q";"de:01004:66159::2";"de:01004:66159";"Neumünster Pappelweg";"54,106114";"10,003369";"00000000";"-";"-";"-";"Served";"Unknown";"";"VBN"
"257330";"Q";"de:01004:66159::3";"de:01004:66159";"Neumünster Pappelweg";"54,106888";"10,002807";"00000000";"-";"-";"-";"Served";"Unknown";"";"VBN"
"257331";"S";"de:01004:66160";"de:01004:66160";"Neumünster Parchimer Straße";"54,11451";"9,982904";"01004000";"Neumünster";"";"";"Served";"Unknown";"";"VBN"
"257332";"Q";"de:01004:66160::1";"de:01004:66160";"Neumünster Parchimer Straße";"54,114465";"9,983091";"00000000";"-";"-";"-";"Served";"Unknown";"";"VBN"
"257333";"Q";"de:01004:66160::2";"de:01004:66160";"Neumünster Parchimer Straße";"54,114396";"9,982885";"00000000";"-";"-";"-";"Served";"Unknown";"";"VBN"
"257334";"S";"de:01004:66161";"de:01004:66161";"Neumünster Parkcenter";"54,075214";"9,985664";"01004000";"Neumünster";"";"";"Served";"Unknown";"";"VBN"
"257335";"Q";"de:01004:66161::1";"de:01004:66161";"Neumünster Parkcenter";"54,07514";"9,985581";"00000000";"-";"-";"-";"Served";"Unknown";"";"VBN"
"257336";"Q";"de:01004:66161::2";"de:01004:66161";"Neumünster Parkcenter";"54,075219";"9,985782";"00000000";"-";"-";"-";"Served";"Unknown";"";"VBN"
"257337";"S";"de:01004:66162";"de:01004:66162";"Neumünster Paul-Ehrlich-Straße";"54,088093";"9,965439";"01004000";"Neumünster";"";"";"Served";"Unknown";"";"VBN"
"257338";"Q";"de:01004:66162::1";"de:01004:66162";"Neumünster Paul-Ehrlich-Straße";"54,08813";"9,965462";"00000000";"-";"-";"-";"Served";"Unknown";"";"VBN"
"257339";"Q";"de:01004:66162::2";"de:01004:66162";"Neumünster Paul-Ehrlich-Straße";"54,088058";"9,965416";"00000000";"-";"-";"-";"Served";"Unknown";"";"VBN"
"257340";"S";"de:01004:66163";"de:01004:66163";"Neumünster Pechsteinstraße";"54,063983";"10,008561";"01004000";"Neumünster";"";"";"Served";"Unknown";"";"VBN"
"257341";"Q";"de:01004:66163::1";"de:01004:66163";"Neumünster Pechsteinstraße";"54,064307";"10,01075";"00000000";"-";"-";"-";"Served";"Unknown";"";"VBN"
"257342";"S";"de:01004:66164";"de:01004:66164";"Neumünster Pestalozzischule";"54,099557";"9,997378";"01004000";"Neumünster";"";"";"Served";"Unknown";"";"VBN"
"257343";"Q";"de:01004:66164::1";"de:01004:66164";"Neumünster Pestalozzischule";"54,099574";"9,997075";"00000000";"-";"-";"-";"Served";"Unknown";"";"VBN"
"257344";"Q";"de:01004:66164::2";"de:01004:66164";"Neumünster Pestalozzischule";"54,099444";"9,996727";"00000000";"-";"-";"-";"Served";"Unknown";"";"VBN"
"257345";"S";"de:01004:66165";"de:01004:66165";"Neumünster Pestalozziweg";"54,077082";"10,006465";"01004000";"Neumünster";"";"";"Served";"Unknown";"";"VBN"
"257346";"Q";"de:01004:66165::1";"de:01004:66165";"Neumünster Pestalozziweg";"54,077082";"10,006465";"00000000";"-";"-";"-";"Served";"Unknown";"";"VBN"
"257347";"S";"de:01004:66166";"de:01004:66166";"Neumünster Plöner Straße";"54,072391";"10,013104";"01004000";"Neumünster";"";"";"Served";"Unknown";"";"VBN"
"257348";"Q";"de:01004:66166::1";"de:01004:66166";"Neumünster Plöner Straße";"54,072391";"10,013104";"00000000";"-";"-";"-";"Served";"Unknown";"";"VBN"
"257349";"Q";"de:01004:66166::2";"de:01004:66166";"Neumünster Plöner Straße";"54,072343";"10,013264";"00000000";"-";"-";"-";"Served";"Unknown";"";"VBN"
"257350";"S";"de:01004:66167";"de:01004:66167";"Neumünster Postamt";"54,076495";"9,978613";"01004000";"Neumünster";"";"";"Served";"Unknown";"";"VBN"
"257351";"Q";"de:01004:66167::1";"de:01004:66167";"Neumünster Postamt";"54,076495";"9,978613";"00000000";"-";"-";"-";"Served";"Unknown";"";"VBN"
"257352";"S";"de:01004:66168";"de:01004:66168";"Neumünster Preetzer Landstraße";"54,106414";"9,998277";"01004000";"Neumünster";"";"";"Served";"Unknown";"";"VBN"
"257353";"Q";"de:01004:66168::1";"de:01004:66168";"Neumünster Preetzer Landstraße";"54,106419";"9,99803";"00000000";"-";"-";"-";"Served";"Unknown";"";"VBN"
"257354";"Q";"de:01004:66168::2";"de:01004:66168";"Neumünster Preetzer Landstraße";"54,106428";"9,998843";"00000000";"-";"-";"-";"Served";"Unknown";"";"VBN"
"257355";"S";"de:01004:66169";"de:01004:66169";"Neumünster Prehnsfelder Weg";"54,093028";"9,958873";"01004000";"Neumünster";"";"";"Served";"Unknown";"";"VBN"
"257356";"Q";"de:01004:66169::1";"de:01004:66169";"Neumünster Prehnsfelder Weg";"54,092999";"9,958971";"00000000";"-";"-";"-";"Served";"Unknown";"";"VBN"
"257357";"Q";"de:01004:66169::2";"de:01004:66169";"Neumünster Prehnsfelder Weg";"54,093065";"9,958754";"00000000";"-";"-";"-";"Served";"Unknown";"";"VBN"
"257358";"S";"de:01004:66170";"de:01004:66170";"Neumünster Rathaus";"54,070656";"9,987599";"01004000";"Neumünster";"";"";"Served";"Unknown";"";"VBN"
"257359";"Q";"de:01004:66170::1";"de:01004:66170";"Neumünster Rathaus";"54,070737";"9,987512";"00000000";"-";"-";"-";"Served";"Unknown";"";"VBN"
"257360";"Q";"de:01004:66170::2";"de:01004:66170";"Neumünster Rathaus";"54,070224";"9,987757";"00000000";"-";"-";"-";"Served";"Unknown";"";"VBN"
"257361";"S";"de:01004:66171";"de:01004:66171";"Neumünster Reiterhof";"54,105264";"9,96736";"01004000";"Neumünster";"";"";"Served";"Unknown";"";"VBN"
"257362";"Q";"de:01004:66171::1";"de:01004:66171";"Neumünster Reiterhof";"54,105264";"9,96736";"00000000";"-";"-";"-";"Served";"Unknown";"";"VBN"
"257363";"Q";"de:01004:66171::2";"de:01004:66171";"Neumünster Reiterhof";"54,105264";"9,96736";"00000000";"-";"-";"-";"Served";"Unknown";"";"VBN"
"257364";"S";"de:01004:66172";"de:01004:66172";"Neumünster Rendsburger Straße";"54,086468";"9,977652";"01004000";"Neumünster";"";"";"Served";"Unknown";"";"VBN"
"257365";"Q";"de:01004:66172::1";"de:01004:66172";"Neumünster Rendsburger Straße";"54,086648";"9,977415";"00000000";"-";"-";"-";"Served";"Unknown";"";"VBN"
"257366";"Q";"de:01004:66172::2";"de:01004:66172";"Neumünster Rendsburger Straße";"54,086199";"9,977913";"00000000";"-";"-";"-";"Served";"Unknown";"";"VBN"
"257367";"S";"de:01004:66173";"de:01004:66173";"Neumünster Rendsburger Straße 313";"54,101415";"9,967949";"01004000";"Neumünster";"";"";"Served";"Unknown";"";"VBN"
"257368";"Q";"de:01004:66173::1";"de:01004:66173";"Neumünster Rendsburger Straße 313";"54,101415";"9,967949";"00000000";"-";"-";"-";"Served";"Unknown";"";"VBN"
"257369";"S";"de:01004:66174";"de:01004:66174";"Neumünster Rendsburger Straße 349";"54,104141";"9,967477";"01004000";"Neumünster";"";"";"Served";"Unknown";"";"VBN"
"257370";"Q";"de:01004:66174::1";"de:01004:66174";"Neumünster Rendsburger Straße 349";"54,104141";"9,967477";"00000000";"-";"-";"-";"Served";"Unknown";"";"VBN"
"257371";"S";"de:01004:66175";"de:01004:66175";"Neumünster Reventlowstraße";"54,062194";"9,983818";"01004000";"Neumünster";"";"";"Served";"Unknown";"";"VBN"
"257372";"Q";"de:01004:66175::1";"de:01004:66175";"Neumünster Reventlowstraße";"54,062639";"9,984307";"00000000";"-";"-";"-";"Served";"Unknown";"";"VBN"
"257373";"Q";"de:01004:66175::2";"de:01004:66175";"Neumünster Reventlowstraße";"54,061667";"9,983306";"00000000";"-";"-";"-";"Served";"Unknown";"";"VBN"
"257374";"S";"de:01004:66176";"de:01004:66176";"Neumünster Rheiner Straße";"54,096995";"9,967785";"01004000";"Neumünster";"";"";"Served";"Unknown";"";"VBN"
"257375";"Q";"de:01004:66176::1";"de:01004:66176";"Neumünster Rheiner Straße";"54,096851";"9,967165";"00000000";"-";"-";"-";"Served";"Unknown";"";"VBN"
"257376";"Q";"de:01004:66176::2";"de:01004:66176";"Neumünster Rheiner Straße";"54,096939";"9,967616";"00000000";"-";"-";"-";"Served";"Unknown";"";"VBN"
"257377";"S";"de:01004:66177";"de:01004:66177";"Neumünster Ringstraße";"54,070241";"9,997286";"01004000";"Neumünster";"";"";"Served";"Unknown";"";"VBN"
"257378";"Q";"de:01004:66177::1";"de:01004:66177";"Neumünster Ringstraße";"54,070307";"9,997249";"00000000";"-";"-";"-";"Served";"Unknown";"";"VBN"
"257379";"Q";"de:01004:66177::2";"de:01004:66177";"Neumünster Ringstraße";"54,070223";"9,997444";"00000000";"-";"-";"-";"Served";"Unknown";"";"VBN"
"257380";"S";"de:01004:66178";"de:01004:66178";"Neumünster Robert-Koch-Straße";"54,088357";"9,976437";"01004000";"Neumünster";"";"";"Served";"Unknown";"";"VBN"
"257381";"Q";"de:01004:66178::1";"de:01004:66178";"Neumünster Robert-Koch-Straße";"54,088221";"9,976336";"00000000";"-";"-";"-";"Served";"Unknown";"";"VBN"
"257382";"Q";"de:01004:66178::2";"de:01004:66178";"Neumünster Robert-Koch-Straße";"54,088499";"9,976419";"00000000";"-";"-";"-";"Served";"Unknown";"";"VBN"
"257383";"S";"de:01004:66179";"de:01004:66179";"Neumünster Rotdornallee";"54,102722";"10,003554";"01004000";"Neumünster";"";"";"Served";"Unknown";"";"VBN"
"257384";"Q";"de:01004:66179::1";"de:01004:66179";"Neumünster Rotdornallee";"54,102376";"10,003535";"00000000";"-";"-";"-";"Served";"Unknown";"";"VBN"
"257385";"Q";"de:01004:66179::2";"de:01004:66179";"Neumünster Rotdornallee";"54,102867";"10,003638";"00000000";"-";"-";"-";"Served";"Unknown";"";"VBN"
"257386";"S";"de:01004:66180";"de:01004:66180";"Neumünster Rudolf-Weißmann-Straße";"54,070402";"9,991852";"01004000";"Neumünster";"";"";"Served";"Unknown";"";"VBN"
"257387";"Q";"de:01004:66180::1";"de:01004:66180";"Neumünster Rudolf-Weißmann-Straße";"54,070402";"9,991852";"00000000";"-";"-";"-";"Served";"Unknown";"";"VBN"
"257388";"Q";"de:01004:66180::2";"de:01004:66180";"Neumünster Rudolf-Weißmann-Straße";"54,070452";"9,991763";"00000000";"-";"-";"-";"Served";"Unknown";"";"VBN"
"257389";"S";"de:01004:66181";"de:01004:66181";"Neumünster Ruhrstraße";"54,052393";"9,983123";"01004000";"Neumünster";"";"";"Served";"Unknown";"";"VBN"
"257390";"Q";"de:01004:66181::1";"de:01004:66181";"Neumünster Ruhrstraße";"54,052365";"9,983255";"00000000";"-";"-";"-";"Served";"Unknown";"";"VBN"
"257391";"S";"de:01004:66182";"de:01004:66182";"Neumünster Rungestraße";"54,100943";"9,968162";"01004000";"Neumünster";"";"";"Served";"Unknown";"";"VBN"
"257392";"Q";"de:01004:66182::1";"de:01004:66182";"Neumünster Rungestraße";"54,100943";"9,968162";"00000000";"-";"-";"-";"Served";"Unknown";"";"VBN"
"257393";"Q";"de:01004:66182::2";"de:01004:66182";"Neumünster Rungestraße";"54,100943";"9,968162";"00000000";"-";"-";"-";"Served";"Unknown";"";"VBN"
"257394";"S";"de:01004:66183";"de:01004:66183";"Neumünster Rutenkamp";"54,070594";"9,967293";"01004000";"Neumünster";"";"";"Served";"Unknown";"";"VBN"
"257395";"Q";"de:01004:66183::1";"de:01004:66183";"Neumünster Rutenkamp";"54,070691";"9,967481";"00000000";"-";"-";"-";"Served";"Unknown";"";"VBN"
"257396";"Q";"de:01004:66183::2";"de:01004:66183";"Neumünster Rutenkamp";"54,070547";"9,967466";"00000000";"-";"-";"-";"Served";"Unknown";"";"VBN"
"257397";"S";"de:01004:66184";"de:01004:66184";"Neumünster Röntgenstraße";"54,096113";"9,961311";"01004000";"Neumünster";"";"";"Served";"Unknown";"";"VBN"
"257398";"Q";"de:01004:66184::1";"de:01004:66184";"Neumünster Röntgenstraße";"54,096274";"9,960774";"00000000";"-";"-";"-";"Served";"Unknown";"";"VBN"
"257399";"Q";"de:01004:66184::2";"de:01004:66184";"Neumünster Röntgenstraße";"54,095947";"9,96158";"00000000";"-";"-";"-";"Served";"Unknown";"";"VBN"
"257400";"S";"de:01004:66185";"de:01004:66185";"Neumünster Rügenstraße";"54,06134";"9,974485";"01004000";"Neumünster";"";"";"Served";"Unknown";"";"VBN"
"257401";"Q";"de:01004:66185::1";"de:01004:66185";"Neumünster Rügenstraße";"54,061026";"9,973773";"00000000";"-";"-";"-";"Served";"Unknown";"";"VBN"
"257402";"Q";"de:01004:66185::2";"de:01004:66185";"Neumünster Rügenstraße";"54,061517";"9,974976";"00000000";"-";"-";"-";"Served";"Unknown";"";"VBN"
"257403";"S";"de:01004:66186";"de:01004:66186";"Neumünster Rüschdal";"54,102561";"9,995818";"01004000";"Neumünster";"";"";"Served";"Unknown";"";"VBN"
"257404";"Q";"de:01004:66186::1";"de:01004:66186";"Neumünster Rüschdal";"54,102292";"9,995826";"00000000";"-";"-";"-";"Served";"Unknown";"";"VBN"
"257405";"Q";"de:01004:66186::2";"de:01004:66186";"Neumünster Rüschdal";"54,102672";"9,995786";"00000000";"-";"-";"-";"Served";"Unknown";"";"VBN"
"257406";"S";"de:01004:66187";"de:01004:66187";"Neumünster Saalestraße";"54,044599";"9,984123";"01004000";"Neumünster";"";"";"Served";"Unknown";"";"VBN"
"257407";"Q";"de:01004:66187::1";"de:01004:66187";"Neumünster Saalestraße";"54,044599";"9,984123";"00000000";"-";"-";"-";"Served";"Unknown";"";"VBN"
"257408";"S";"de:01004:66188";"de:01004:66188";"Neumünster Saalestraße/DOC";"54,043992";"9,983666";"01004000";"Neumünster";"";"";"Served";"Unknown";"";"VBN"
"257409";"Q";"de:01004:66188::1";"de:01004:66188";"Neumünster Saalestraße/DOC";"54,043992";"9,983666";"00000000";"-";"-";"-";"Served";"Unknown";"";"VBN"
"257410";"S";"de:01004:66189";"de:01004:66189";"Neumünster Sachsenring";"54,066887";"9,998066";"01004000";"Neumünster";"";"";"Served";"Unknown";"";"VBN"
"257411";"Q";"de:01004:66189::1";"de:01004:66189";"Neumünster Sachsenring";"54,067142";"9,998472";"00000000";"-";"-";"-";"Served";"Unknown";"";"VBN"
"257412";"Q";"de:01004:66189::2";"de:01004:66189";"Neumünster Sachsenring";"54,06661";"9,997665";"00000000";"-";"-";"-";"Served";"Unknown";"";"VBN"
"257413";"S";"de:01004:66190";"de:01004:66190";"Neumünster Schleswiger Straße";"54,061034";"9,954124";"01004000";"Neumünster";"";"";"Served";"Unknown";"";"VBN"
"257414";"Q";"de:01004:66190::1";"de:01004:66190";"Neumünster Schleswiger Straße";"54,061066";"9,954288";"00000000";"-";"-";"-";"Served";"Unknown";"";"VBN"
"257415";"Q";"de:01004:66190::2";"de:01004:66190";"Neumünster Schleswiger Straße";"54,060992";"9,953927";"00000000";"-";"-";"-";"Served";"Unknown";"";"VBN"
"257416";"S";"de:01004:66191";"de:01004:66191";"Neumünster Schleusberg";"54,07006";"9,977744";"01004000";"Neumünster";"";"";"Served";"Unknown";"";"VBN"
"257417";"Q";"de:01004:66191::1";"de:01004:66191";"Neumünster Schleusberg";"54,07006";"9,977744";"00000000";"-";"-";"-";"Served";"Unknown";"";"VBN"
"257418";"S";"de:01004:66192";"de:01004:66192";"Neumünster Schulstraße";"54,090854";"9,98722";"01004000";"Neumünster";"";"";"Served";"Unknown";"";"VBN"
"257419";"Q";"de:01004:66192::1";"de:01004:66192";"Neumünster Schulstraße";"54,090077";"9,986892";"00000000";"-";"-";"-";"Served";"Unknown";"";"VBN"
"257420";"Q";"de:01004:66192::2";"de:01004:66192";"Neumünster Schulstraße";"54,091009";"9,987382";"00000000";"-";"-";"-";"Served";"Unknown";"";"VBN"
"257421";"S";"de:01004:66193";"de:01004:66193";"Neumünster Schwentinestraße";"54,055576";"9,98116";"01004000";"Neumünster";"";"";"Served";"Unknown";"";"VBN"
"257422";"Q";"de:01004:66193::1";"de:01004:66193";"Neumünster Schwentinestraße";"54,055576";"9,98116";"00000000";"-";"-";"-";"Served";"Unknown";"";"VBN"
"257423";"Q";"de:01004:66193::2";"de:01004:66193";"Neumünster Schwentinestraße";"54,055528";"9,981203";"00000000";"-";"-";"-";"Served";"Unknown";"";"VBN"
"257424";"S";"de:01004:66194";"de:01004:66194";"Neumünster Schönmörchenstraße";"54,049072";"10,006062";"01004000";"Neumünster";"";"";"Served";"Unknown";"";"VBN"
"257425";"Q";"de:01004:66194::1";"de:01004:66194";"Neumünster Schönmörchenstraße";"54,049072";"10,006062";"00000000";"-";"-";"-";"Served";"Unknown";"";"VBN"
"257426";"Q";"de:01004:66194::2";"de:01004:66194";"Neumünster Schönmörchenstraße";"54,049007";"10,006088";"00000000";"-";"-";"-";"Served";"Unknown";"";"VBN"
"257427";"S";"de:01004:66195";"de:01004:66195";"Neumünster Sedanstraße";"54,081567";"9,979145";"01004000";"Neumünster";"";"";"Served";"Unknown";"";"VBN"
"257428";"Q";"de:01004:66195::1";"de:01004:66195";"Neumünster Sedanstraße";"54,081567";"9,979145";"00000000";"-";"-";"-";"Served";"Unknown";"";"VBN"
"257429";"Q";"de:01004:66195::2";"de:01004:66195";"Neumünster Sedanstraße";"54,081601";"9,979223";"00000000";"-";"-";"-";"Served";"Unknown";"";"VBN"
"257430";"S";"de:01004:66196";"de:01004:66196";"Neumünster Seniorenheim";"54,056927";"9,985086";"01004000";"Neumünster";"";"";"Served";"Unknown";"";"VBN"
"257431";"Q";"de:01004:66196::1";"de:01004:66196";"Neumünster Seniorenheim";"54,056927";"9,985086";"00000000";"-";"-";"-";"Served";"Unknown";"";"VBN"
"257432";"S";"de:01004:66197";"de:01004:66197";"Neumünster Sonnenhof";"54,043807";"9,992173";"01004000";"Neumünster";"";"";"Served";"Unknown";"";"VBN"
"257433";"Q";"de:01004:66197::1";"de:01004:66197";"Neumünster Sonnenhof";"54,043781";"9,992002";"00000000";"-";"-";"-";"Served";"Unknown";"";"VBN"
"257434";"S";"de:01004:66198";"de:01004:66198";"Neumünster Sparkasse";"54,075601";"9,982942";"01004000";"Neumünster";"";"";"Served";"Unknown";"";"VBN"
"257435";"Q";"de:01004:66198::1";"de:01004:66198";"Neumünster Sparkasse";"54,075585";"9,98284";"00000000";"-";"-";"-";"Served";"Unknown";"";"VBN"
"257436";"S";"de:01004:66199";"de:01004:66199";"Neumünster Sportplatz";"54,126281";"9,985952";"01004000";"Neumünster";"";"";"Served";"Unknown";"";"VBN"
"257437";"Q";"de:01004:66199::1";"de:01004:66199";"Neumünster Sportplatz";"54,126164";"9,986945";"00000000";"-";"-";"-";"Served";"Unknown";"";"VBN"
"257438";"Q";"de:01004:66199::2";"de:01004:66199";"Neumünster Sportplatz";"54,126692";"9,986085";"00000000";"-";"-";"-";"Served";"Unknown";"";"VBN"
"257439";"S";"de:01004:66200";"de:01004:66200";"Neumünster Spreestraße";"54,047313";"9,973057";"01004000";"Neumünster";"";"";"Served";"Unknown";"";"VBN"
"257440";"Q";"de:01004:66200::1";"de:01004:66200";"Neumünster Spreestraße";"54,047379";"9,973167";"00000000";"-";"-";"-";"Served";"Unknown";"";"VBN"
"257441";"S";"de:01004:66201";"de:01004:66201";"Neumünster Staatshof";"54,094778";"9,941496";"01004000";"Neumünster";"";"";"Served";"Unknown";"";"VBN"
"257442";"Q";"de:01004:66201::1";"de:01004:66201";"Neumünster Staatshof";"54,094358";"9,941632";"00000000";"-";"-";"-";"Served";"Unknown";"";"VBN"
"257443";"Q";"de:01004:66201::2";"de:01004:66201";"Neumünster Staatshof";"54,094248";"9,944244";"00000000";"-";"-";"-";"Served";"Unknown";"";"VBN"
"257444";"S";"de:01004:66202";"de:01004:66202";"Neumünster Bahnhof am Stadtwald";"54,083352";"9,962241";"01004000";"Neumünster";"";"";"Served";"Unknown";"";"VBN"
"257445";"Q";"de:01004:66202::1";"de:01004:66202";"Neumünster Stadtwald";"54,08343";"9,962863";"00000000";"-";"-";"-";"Served";"Unknown";"";"VBN"
"257446";"Q";"de:01004:66202::2";"de:01004:66202";"Neumünster Bahnhof am Stadtwald";"54,083196";"9,962001";"00000000";"-";"-";"-";"Served";"Unknown";"";"VBN"
"257447";"Q";"de:01004:66202::3";"de:01004:66202";"Neumünster Bahnhof am Stadtwald";"54,083854";"9,961741";"00000000";"-";"-";"-";"Served";"Unknown";"";"VBN"
"257448";"S";"de:01004:66203";"de:01004:66203";"Neumünster Stadtwerke Neumünster Kundenzentrum";"54,074618";"9,983521";"01004000";"Neumünster";"";"";"Served";"Unknown";"";"VBN"
"257449";"Q";"de:01004:66203::1";"de:01004:66203";"Neumünster Stadtwerke Neumünster Kundenzentrum";"54,074618";"9,983521";"00000000";"-";"-";"-";"Served";"Unknown";"";"VBN"
"257450";"S";"de:01004:66204";"de:01004:66204";"Neumünster Steenkoppel";"54,051539";"9,957016";"01004000";"Neumünster";"";"";"Served";"Unknown";"";"VBN"
"257451";"Q";"de:01004:66204::1";"de:01004:66204";"Neumünster Steenkoppel";"54,051539";"9,957016";"00000000";"-";"-";"-";"Served";"Unknown";"";"VBN"
"257452";"Q";"de:01004:66204::2";"de:01004:66204";"Neumünster Steenkoppel";"54,051495";"9,957129";"00000000";"-";"-";"-";"Served";"Unknown";"";"VBN"
"257453";"S";"de:01004:66205";"de:01004:66205";"Neumünster Steinmetzstraße";"54,076594";"9,971554";"01004000";"Neumünster";"";"";"Served";"Unknown";"";"VBN"
"257454";"Q";"de:01004:66205::1";"de:01004:66205";"Neumünster Steinmetzstraße";"54,076636";"9,971799";"00000000";"-";"-";"-";"Served";"Unknown";"";"VBN"
"257455";"Q";"de:01004:66205::2";"de:01004:66205";"Neumünster Steinmetzstraße";"54,076492";"9,971356";"00000000";"-";"-";"-";"Served";"Unknown";"";"VBN"
"257456";"S";"de:01004:66206";"de:01004:66206";"Neumünster Stover";"54,099402";"9,974976";"01004000";"Neumünster";"";"";"Served";"Unknown";"";"VBN"
"257457";"Q";"de:01004:66206::1";"de:01004:66206";"Neumünster Stover";"54,099308";"9,975862";"00000000";"-";"-";"-";"Served";"Unknown";"";"VBN"
"257458";"Q";"de:01004:66206::2";"de:01004:66206";"Neumünster Stover";"54,099497";"9,973634";"00000000";"-";"-";"-";"Served";"Unknown";"";"VBN"
"257459";"Q";"de:01004:66206::3";"de:01004:66206";"Neumünster Stover";"54,099573";"9,970942";"00000000";"-";"-";"-";"Served";"Unknown";"";"VBN"
"257460";"S";"de:01004:66207";"de:01004:66207";"Neumünster Störwiesen";"54,056777";"9,979295";"01004000";"Neumünster";"";"";"Served";"Unknown";"";"VBN"
"257461";"Q";"de:01004:66207::1";"de:01004:66207";"Neumünster Störwiesen";"54,056615";"9,979032";"00000000";"-";"-";"-";"Served";"Unknown";"";"VBN"
"257462";"Q";"de:01004:66207::2";"de:01004:66207";"Neumünster Störwiesen";"54,056944";"9,979498";"00000000";"-";"-";"-";"Served";"Unknown";"";"VBN"
"257463";"S";"de:01004:66208";"de:01004:66208";"Neumünster Süd AKN";"54,059815";"9,983042";"01004000";"Neumünster";"";"";"Served";"Unknown";"";"VBN"
"257464";"Q";"de:01004:66208::1";"de:01004:66208";"Neumünster Süd AKN";"54,059815";"9,983042";"00000000";"-";"-";"-";"Served";"Unknown";"";"VBN"
"257465";"S";"de:01004:66209";"de:01004:66209";"Neumünster Südbahnhof";"54,060033";"9,98197";"01004000";"Neumünster";"";"";"Served";"Unknown";"";"VBN"
"257466";"Q";"de:01004:66209::1";"de:01004:66209";"Neumünster Südbahnhof";"54,059969";"9,981851";"00000000";"-";"-";"-";"Served";"Unknown";"";"VBN"
"257467";"Q";"de:01004:66209::2";"de:01004:66209";"Neumünster Südbahnhof";"54,06008";"9,982127";"00000000";"-";"-";"-";"Served";"Unknown";"";"VBN"
"257468";"S";"de:01004:66210";"de:01004:66210";"Neumünster Südfriedhof";"54,070997";"10,004622";"01004000";"Neumünster";"";"";"Served";"Unknown";"";"VBN"
"257469";"Q";"de:01004:66210::1";"de:01004:66210";"Neumünster Südfriedhof";"54,070997";"10,004622";"00000000";"-";"-";"-";"Served";"Unknown";"";"VBN"
"257470";"Q";"de:01004:66210::2";"de:01004:66210";"Neumünster Südfriedhof";"54,070949";"10,004671";"00000000";"-";"-";"-";"Served";"Unknown";"";"VBN"
"257471";"S";"de:01004:66211";"de:01004:66211";"Neumünster Teich Brücke";"54,072745";"9,986059";"01004000";"Neumünster";"";"";"Served";"Unknown";"";"VBN"
"257472";"Q";"de:01004:66211::1";"de:01004:66211";"Neumünster Teich Brücke";"54,072509";"9,986282";"00000000";"-";"-";"-";"Served";"Unknown";"";"VBN"
"257473";"Q";"de:01004:66211::2";"de:01004:66211";"Neumünster Teich Brücke";"54,073129";"9,985675";"00000000";"-";"-";"-";"Served";"Unknown";"";"VBN"
"257474";"S";"de:01004:66212";"de:01004:66212";"Neumünster Tennishalle";"54,103887";"9,985466";"01004000";"Neumünster";"";"";"Served";"Unknown";"";"VBN"
"257475";"Q";"de:01004:66212::1";"de:01004:66212";"Neumünster Tennishalle";"54,103887";"9,985466";"00000000";"-";"-";"-";"Served";"Unknown";"";"VBN"
"257476";"Q";"de:01004:66212::2";"de:01004:66212";"Neumünster Tennishalle";"54,104002";"9,985439";"00000000";"-";"-";"-";"Served";"Unknown";"";"VBN"
"257477";"S";"de:01004:66213";"de:01004:66213";"Neumünster Tierpark";"54,089915";"9,946376";"01004000";"Neumünster";"";"";"Served";"Unknown";"";"VBN"
"257478";"Q";"de:01004:66213::1";"de:01004:66213";"Neumünster Tierpark";"54,089456";"9,947058";"00000000";"-";"-";"-";"Served";"Unknown";"";"VBN"
"257479";"S";"de:01004:66214";"de:01004:66214";"Neumünster Tonderner Straße";"54,058874";"9,937133";"01004000";"Neumünster";"";"";"Served";"Unknown";"";"VBN"
"257480";"Q";"de:01004:66214::1";"de:01004:66214";"Neumünster Tonderner Straße";"54,058833";"9,936771";"00000000";"-";"-";"-";"Served";"Unknown";"";"VBN"
"257481";"Q";"de:01004:66214::2";"de:01004:66214";"Neumünster Tonderner Straße";"54,058801";"9,937048";"00000000";"-";"-";"-";"Served";"Unknown";"";"VBN"
"257482";"S";"de:01004:66215";"de:01004:66215";"Neumünster Tungendorf-Dorf";"54,099581";"10,013782";"01004000";"Neumünster";"";"";"Served";"Unknown";"";"VBN"
"257483";"Q";"de:01004:66215::1";"de:01004:66215";"Neumünster Tungendorf-Dorf";"54,099573";"10,012643";"00000000";"-";"-";"-";"Served";"Unknown";"";"VBN"
"257484";"Q";"de:01004:66215::2";"de:01004:66215";"Neumünster Tungendorf-Dorf";"54,099339";"10,016445";"00000000";"-";"-";"-";"Served";"Unknown";"";"VBN"
"257485";"Q";"de:01004:66215::3";"de:01004:66215";"Neumünster Tungendorf-Dorf";"54,099672";"10,012837";"00000000";"-";"-";"-";"Served";"Unknown";"";"VBN"
"257486";"S";"de:01004:66216";"de:01004:66216";"Neumünster Tunnel";"54,068253";"9,973356";"01004000";"Neumünster";"";"";"Served";"Unknown";"";"VBN"
"257487";"Q";"de:01004:66216::1";"de:01004:66216";"Neumünster Tunnel";"54,068361";"9,9737";"00000000";"-";"-";"-";"Served";"Unknown";"";"VBN"
"257488";"Q";"de:01004:66216::2";"de:01004:66216";"Neumünster Tunnel";"54,068058";"9,972898";"00000000";"-";"-";"-";"Served";"Unknown";"";"VBN"
"257489";"S";"de:01004:66217";"de:01004:66217";"Neumünster Ulmenweg";"54,095782";"9,964486";"01004000";"Neumünster";"";"";"Served";"Unknown";"";"VBN"
"257490";"Q";"de:01004:66217::1";"de:01004:66217";"Neumünster Ulmenweg";"54,095941";"9,964253";"00000000";"-";"-";"-";"Served";"Unknown";"";"VBN"
"257491";"Q";"de:01004:66217::2";"de:01004:66217";"Neumünster Ulmenweg";"54,095757";"9,964642";"00000000";"-";"-";"-";"Served";"Unknown";"";"VBN"
"257492";"S";"de:01004:66218";"de:01004:66218";"Neumünster Urquell";"54,064324";"9,949093";"01004000";"Neumünster";"";"";"Served";"Unknown";"";"VBN"
"257493";"Q";"de:01004:66218::1";"de:01004:66218";"Neumünster Urquell";"54,064278";"9,949071";"00000000";"-";"-";"-";"Served";"Unknown";"";"VBN"
"257494";"Q";"de:01004:66218::2";"de:01004:66218";"Neumünster Urquell";"54,064245";"9,948487";"00000000";"-";"-";"-";"Served";"Unknown";"";"VBN"
"257495";"S";"de:01004:66219";"de:01004:66219";"Neumünster Veit-Stoß-Ring";"54,069117";"10,014582";"01004000";"Neumünster";"";"";"Served";"Unknown";"";"VBN"
"257496";"Q";"de:01004:66219::1";"de:01004:66219";"Neumünster Veit-Stoß-Ring";"54,069246";"10,017747";"00000000";"-";"-";"-";"Served";"Unknown";"";"VBN"
"257497";"Q";"de:01004:66219::2";"de:01004:66219";"Neumünster Veit-Stoß-Ring";"54,068721";"10,017705";"00000000";"-";"-";"-";"Served";"Unknown";"";"VBN"
"257498";"S";"de:01004:66220";"de:01004:66220";"Neumünster Virchowstraße";"54,089714";"9,963546";"01004000";"Neumünster";"";"";"Served";"Unknown";"";"VBN"
"257499";"Q";"de:01004:66220::1";"de:01004:66220";"Neumünster Virchowstraße";"54,089781";"9,963529";"00000000";"-";"-";"-";"Served";"Unknown";"";"VBN"
"257500";"Q";"de:01004:66220::2";"de:01004:66220";"Neumünster Virchowstraße";"54,089639";"9,963538";"00000000";"-";"-";"-";"Served";"Unknown";"";"VBN"
"257501";"S";"de:01004:66221";"de:01004:66221";"Neumünster Vogelbeerallee";"54,104048";"9,997879";"01004000";"Neumünster";"";"";"Served";"Unknown";"";"VBN"
"257502";"Q";"de:01004:66221::1";"de:01004:66221";"Neumünster Vogelbeerallee";"54,104079";"9,997922";"00000000";"-";"-";"-";"Served";"Unknown";"";"VBN"
"257503";"Q";"de:01004:66221::2";"de:01004:66221";"Neumünster Vogelbeerallee";"54,103974";"9,997816";"00000000";"-";"-";"-";"Served";"Unknown";"";"VBN"
"257504";"S";"de:01004:66222";"de:01004:66222";"Neumünster Volkshaus";"54,091448";"9,995755";"01004000";"Neumünster";"";"";"Served";"Unknown";"";"VBN"
"257505";"Q";"de:01004:66222::1";"de:01004:66222";"Neumünster Volkshaus";"54,091458";"9,996979";"00000000";"-";"-";"-";"Served";"Unknown";"";"VBN"
"257506";"Q";"de:01004:66222::2";"de:01004:66222";"Neumünster Volkshaus";"54,092403";"9,995794";"00000000";"-";"-";"-";"Served";"Unknown";"";"VBN"
"257507";"S";"de:01004:66223";"de:01004:66223";"Neumünster Voßgang";"54,049552";"10,021556";"01004000";"Neumünster";"";"";"Served";"Unknown";"";"VBN"
"257508";"Q";"de:01004:66223::1";"de:01004:66223";"Neumünster Voßgang";"54,049598";"10,021789";"00000000";"-";"-";"-";"Served";"Unknown";"";"VBN"
"257509";"Q";"de:01004:66223::2";"de:01004:66223";"Neumünster Voßgang";"54,049677";"10,021482";"00000000";"-";"-";"-";"Served";"Unknown";"";"VBN"
"257510";"S";"de:01004:66224";"de:01004:66224";"Neumünster Wakenitzstraße";"54,048803";"9,979169";"01004000";"Neumünster";"";"";"Served";"Unknown";"";"VBN"
"257511";"Q";"de:01004:66224::1";"de:01004:66224";"Neumünster Wakenitzstraße";"54,048803";"9,979169";"00000000";"-";"-";"-";"Served";"Unknown";"";"VBN"
"257512";"S";"de:01004:66225";"de:01004:66225";"Neumünster Waldorfschule";"54,112536";"9,983825";"01004000";"Neumünster";"";"";"Served";"Unknown";"";"VBN"
"257513";"Q";"de:01004:66225::1";"de:01004:66225";"Neumünster Waldorfschule";"54,112429";"9,983777";"00000000";"-";"-";"-";"Served";"Unknown";"";"VBN"
"257514";"Q";"de:01004:66225::2";"de:01004:66225";"Neumünster Waldorfschule";"54,112388";"9,983975";"00000000";"-";"-";"-";"Served";"Unknown";"";"VBN"
"257515";"S";"de:01004:66226";"de:01004:66226";"Neumünster Waldschlößchen";"54,108682";"9,992353";"01004000";"Neumünster";"";"";"Served";"Unknown";"";"VBN"
"257516";"Q";"de:01004:66226::1";"de:01004:66226";"Neumünster Waldschlößchen";"54,108258";"9,992072";"00000000";"-";"-";"-";"Served";"Unknown";"";"VBN"
"257517";"Q";"de:01004:66226::2";"de:01004:66226";"Neumünster Waldschlößchen";"54,10939";"9,992674";"00000000";"-";"-";"-";"Served";"Unknown";"";"VBN"
"257518";"S";"de:01004:66227";"de:01004:66227";"Neumünster Waldwiesenweg";"54,073095";"10,013732";"01004000";"Neumünster";"";"";"Served";"Unknown";"";"VBN"
"257519";"Q";"de:01004:66227::1";"de:01004:66227";"Neumünster Waldwiesenweg";"54,073095";"10,013732";"00000000";"-";"-";"-";"Served";"Unknown";"";"VBN"
"257520";"S";"de:01004:66228";"de:01004:66228";"Neumünster Wasbeker Straße";"54,070951";"9,973106";"01004000";"Neumünster";"";"";"Served";"Unknown";"";"VBN"
"257521";"Q";"de:01004:66228::1";"de:01004:66228";"Neumünster Wasbeker Straße";"54,070951";"9,973106";"00000000";"-";"-";"-";"Served";"Unknown";"";"VBN"
"257522";"S";"de:01004:66229";"de:01004:66229";"Neumünster Wasbeker Straße 240";"54,070112";"9,952529";"01004000";"Neumünster";"";"";"Served";"Unknown";"";"VBN"
"257523";"Q";"de:01004:66229::1";"de:01004:66229";"Neumünster Wasbeker Straße 240";"54,070112";"9,952529";"00000000";"-";"-";"-";"Served";"Unknown";"";"VBN"
"257524";"S";"de:01004:66230";"de:01004:66230";"Neumünster Wasbeker Straße 241";"54,070054";"9,952786";"01004000";"Neumünster";"";"";"Served";"Unknown";"";"VBN"
"257525";"Q";"de:01004:66230::1";"de:01004:66230";"Neumünster Wasbeker Straße 241";"54,070029";"9,952772";"00000000";"-";"-";"-";"Served";"Unknown";"";"VBN"
"257526";"S";"de:01004:66231";"de:01004:66231";"Neumünster Weberstraße";"54,065498";"9,953962";"01004000";"Neumünster";"";"";"Served";"Unknown";"";"VBN"
"257527";"Q";"de:01004:66231::1";"de:01004:66231";"Neumünster Weberstraße";"54,065584";"9,954195";"00000000";"-";"-";"-";"Served";"Unknown";"";"VBN"
"257528";"Q";"de:01004:66231::2";"de:01004:66231";"Neumünster Weberstraße";"54,065481";"9,953779";"00000000";"-";"-";"-";"Served";"Unknown";"";"VBN"
"257529";"S";"de:01004:66232";"de:01004:66232";"Neumünster Wernershagen";"54,061667";"9,941915";"01004000";"Neumünster";"";"";"Served";"Unknown";"";"VBN"
"257530";"Q";"de:01004:66232::1";"de:01004:66232";"Neumünster Wernershagen";"54,061576";"9,941698";"00000000";"-";"-";"-";"Served";"Unknown";"";"VBN"
"257531";"Q";"de:01004:66232::2";"de:01004:66232";"Neumünster Wernershagen";"54,061525";"9,9418";"00000000";"-";"-";"-";"Served";"Unknown";"";"VBN"
"257532";"S";"de:01004:66233";"de:01004:66233";"Neumünster Weserstraße";"54,048313";"9,9859";"01004000";"Neumünster";"";"";"Served";"Unknown";"";"VBN"
"257533";"Q";"de:01004:66233::1";"de:01004:66233";"Neumünster Weserstraße";"54,048253";"9,982248";"00000000";"-";"-";"-";"Served";"Unknown";"";"VBN"
"257534";"Q";"de:01004:66233::2";"de:01004:66233";"Neumünster Weserstraße";"54,048211";"9,985781";"00000000";"-";"-";"-";"Served";"Unknown";"";"VBN"
"257535";"S";"de:01004:66234";"de:01004:66234";"Neumünster Weserstraße/Krokamp";"54,047834";"9,985222";"01004000";"Neumünster";"";"";"Served";"Unknown";"";"VBN"
"257536";"Q";"de:01004:66234::1";"de:01004:66234";"Neumünster Weserstraße/Krokamp";"54,047834";"9,985222";"00000000";"-";"-";"-";"Served";"Unknown";"";"VBN"
"257537";"S";"de:01004:66235";"de:01004:66235";"Neumünster Westerländer Straße";"54,059877";"9,94215";"01004000";"Neumünster";"";"";"Served";"Unknown";"";"VBN"
"257538";"Q";"de:01004:66235::1";"de:01004:66235";"Neumünster Westerländer Straße";"54,059839";"9,941729";"00000000";"-";"-";"-";"Served";"Unknown";"";"VBN"
"257539";"Q";"de:01004:66235::2";"de:01004:66235";"Neumünster Westerländer Straße";"54,059832";"9,942027";"00000000";"-";"-";"-";"Served";"Unknown";"";"VBN"
"257540";"S";"de:01004:66236";"de:01004:66236";"Neumünster Wilhelm-Busch-Straße";"54,065399";"10,015392";"01004000";"Neumünster";"";"";"Served";"Unknown";"";"VBN"
"257541";"Q";"de:01004:66236::1";"de:01004:66236";"Neumünster Wilhelm-Busch-Straße";"54,06529";"10,014952";"00000000";"-";"-";"-";"Served";"Unknown";"";"VBN"
"257542";"Q";"de:01004:66236::2";"de:01004:66236";"Neumünster Wilhelm-Busch-Straße";"54,065392";"10,014991";"00000000";"-";"-";"-";"Served";"Unknown";"";"VBN"
"257543";"S";"de:01004:66237";"de:01004:66237";"Neumünster Wilhelm-Tanck-Schule";"54,076833";"9,975657";"01004000";"Neumünster";"";"";"Served";"Unknown";"";"VBN"
"257544";"Q";"de:01004:66237::1";"de:01004:66237";"Neumünster Wilhelm-Tanck-Schule";"54,07683";"9,97561";"00000000";"-";"-";"-";"Served";"Unknown";"";"VBN"
"257545";"Q";"de:01004:66237::2";"de:01004:66237";"Neumünster Wilhelm-Tanck-Schule";"54,076843";"9,975712";"00000000";"-";"-";"-";"Served";"Unknown";"";"VBN"
"257546";"S";"de:01004:66238";"de:01004:66238";"Neumünster Wilhelminenstraße";"54,099588";"9,989809";"01004000";"Neumünster";"";"";"Served";"Unknown";"";"VBN"
"257547";"Q";"de:01004:66238::1";"de:01004:66238";"Neumünster Wilhelminenstraße";"54,099115";"9,989529";"00000000";"-";"-";"-";"Served";"Unknown";"";"VBN"
"257548";"Q";"de:01004:66238::2";"de:01004:66238";"Neumünster Wilhelminenstraße";"54,099804";"9,989882";"00000000";"-";"-";"-";"Served";"Unknown";"";"VBN"
"257549";"S";"de:01004:66239";"de:01004:66239";"Neumünster Wilhelmsruh";"54,078212";"10,01103";"01004000";"Neumünster";"";"";"Served";"Unknown";"";"VBN"
"257550";"Q";"de:01004:66239::1";"de:01004:66239";"Neumünster Wilhelmsruh";"54,078212";"10,01103";"00000000";"-";"-";"-";"Served";"Unknown";"";"VBN"
"257551";"Q";"de:01004:66239::2";"de:01004:66239";"Neumünster Wilhelmsruh";"54,078178";"10,011097";"00000000";"-";"-";"-";"Served";"Unknown";"";"VBN"
"257552";"S";"de:01004:66240";"de:01004:66240";"Neumünster Wilhelmstraße";"54,071542";"9,975867";"01004000";"Neumünster";"";"";"Served";"Unknown";"";"VBN"
"257553";"Q";"de:01004:66240::1";"de:01004:66240";"Neumünster Wilhelmstraße";"54,071602";"9,975882";"00000000";"-";"-";"-";"Served";"Unknown";"";"VBN"
"257554";"S";"de:01004:66241";"de:01004:66241";"Neumünster Wookerkamp";"54,099629";"10,003978";"01004000";"Neumünster";"";"";"Served";"Unknown";"";"VBN"
"257555";"Q";"de:01004:66241::1";"de:01004:66241";"Neumünster Wookerkamp";"54,099551";"10,004144";"00000000";"-";"-";"-";"Served";"Unknown";"";"VBN"
"257556";"Q";"de:01004:66241::2";"de:01004:66241";"Neumünster Wookerkamp";"54,099643";"10,004649";"00000000";"-";"-";"-";"Served";"Unknown";"";"VBN"
"257557";"Q";"de:01004:66241::3";"de:01004:66241";"Neumünster Wookerkamp";"54,099551";"10,003058";"00000000";"-";"-";"-";"Served";"Unknown";"";"VBN"
"257558";"Q";"de:01004:66241::4";"de:01004:66241";"Neumünster Wookerkamp";"54,099587";"10,003105";"00000000";"-";"-";"-";"Served";"Unknown";"";"VBN"
"257559";"S";"de:01004:66242";"de:01004:66242";"Neumünster Wührenbeksweg";"54,051378";"9,965792";"01004000";"Neumünster";"";"";"Served";"Unknown";"";"VBN"
"257560";"Q";"de:01004:66242::1";"de:01004:66242";"Neumünster Wührenbeksweg";"54,051378";"9,965792";"00000000";"-";"-";"-";"Served";"Unknown";"";"VBN"
"257561";"Q";"de:01004:66242::2";"de:01004:66242";"Neumünster Wührenbeksweg";"54,051344";"9,965806";"00000000";"-";"-";"-";"Served";"Unknown";"";"VBN"
"257562";"S";"de:01004:66243";"de:01004:66243";"Neumünster Würen";"54,052403";"10,026466";"01004000";"Neumünster";"";"";"Served";"Unknown";"";"VBN"
"257563";"Q";"de:01004:66243::1";"de:01004:66243";"Neumünster Würen";"54,05244";"10,026606";"00000000";"-";"-";"-";"Served";"Unknown";"";"VBN"
"257564";"Q";"de:01004:66243::2";"de:01004:66243";"Neumünster Würen";"54,052338";"10,025976";"00000000";"-";"-";"-";"Served";"Unknown";"";"VBN"
"257565";"S";"de:01004:66244";"de:01004:66244";"Neumünster ZOB/Bahnhof";"54,075121";"9,980262";"01004000";"Neumünster";"";"";"Served";"Unknown";"";"VBN"
"257566";"Q";"de:01004:66244::1";"de:01004:66244";"Neumünster ZOB/Bahnhof";"54,075121";"9,980262";"00000000";"-";"-";"-";"Served";"Unknown";"";"VBN"
"257567";"Q";"de:01004:66244::2";"de:01004:66244";"Neumünster ZOB/Bahnhof";"54,075254";"9,980448";"00000000";"-";"-";"-";"Served";"Unknown";"";"VBN"
"257568";"Q";"de:01004:66244::3";"de:01004:66244";"Neumünster ZOB/Bahnhof";"54,075336";"9,980328";"00000000";"-";"-";"-";"Served";"Unknown";"";"VBN"
"257569";"Q";"de:01004:66244::4";"de:01004:66244";"Neumünster ZOB/Bahnhof";"54,074887";"9,980256";"00000000";"-";"-";"-";"Served";"Unknown";"";"VBN"
"257570";"Q";"de:01004:66244::5";"de:01004:66244";"Neumünster ZOB/Bahnhof";"54,075112";"9,980246";"00000000";"-";"-";"-";"Served";"Unknown";"";"VBN"
"257571";"Q";"de:01004:66244::6";"de:01004:66244";"Neumünster ZOB/Bahnhof";"54,074142";"9,979656";"00000000";"-";"-";"-";"Served";"Unknown";"";"VBN"
"257572";"Q";"de:01004:66244::7";"de:01004:66244";"Neumünster ZOB/Bahnhof";"54,075698";"9,981147";"00000000";"-";"-";"-";"Served";"Unknown";"";"VBN"
"257573";"Q";"de:01004:66244::8";"de:01004:66244";"Neumünster ZOB/Bahnhof";"54,074294";"9,979505";"00000000";"-";"-";"-";"Served";"Unknown";"";"VBN"
"257574";"S";"de:01004:66245";"de:01004:66245";"Neumünster Zollamt";"54,075686";"9,966403";"01004000";"Neumünster";"";"";"Served";"Unknown";"";"VBN"
"257575";"Q";"de:01004:66245::1";"de:01004:66245";"Neumünster Zollamt";"54,075686";"9,966403";"00000000";"-";"-";"-";"Served";"Unknown";"";"VBN"
"257576";"Q";"de:01004:66245::2";"de:01004:66245";"Neumünster Zollamt";"54,075751";"9,966423";"00000000";"-";"-";"-";"Served";"Unknown";"";"VBN"
"257577";"S";"de:01004:66246";"de:01004:66246";"Neumünster-Brachenfeld";"54,078381";"10,012302";"01004000";"Neumünster";"";"";"Served";"Unknown";"";"VBN"
"257578";"Q";"de:01004:66246::1";"de:01004:66246";"Neumünster-Brachenfeld";"54,078381";"10,012302";"00000000";"-";"-";"-";"Served";"Unknown";"";"VBN"
"257579";"Q";"de:01004:66246::2";"de:01004:66246";"Neumünster-Brachenfeld";"54,078446";"10,012287";"00000000";"-";"-";"-";"Served";"Unknown";"";"VBN"
"257580";"S";"de:01004:66247";"de:01004:66247";"Neumünster-Einfeld Alte Schanze";"54,138387";"10,008681";"01004000";"Neumünster";"";"";"Served";"Unknown";"";"VBN"
"257581";"Q";"de:01004:66247::1";"de:01004:66247";"Neumünster-Einfeld Alte Schanze";"54,138387";"10,008681";"00000000";"-";"-";"-";"Served";"Unknown";"";"VBN"
"257582";"Q";"de:01004:66247::2";"de:01004:66247";"Neumünster-Einfeld Alte Schanze";"54,138387";"10,008681";"00000000";"-";"-";"-";"Served";"Unknown";"";"VBN"
"257583";"S";"de:01004:66248";"de:01004:66248";"Neumünster-Einfeld Bahnhof";"54,129276";"9,99643";"01004000";"Neumünster";"";"";"Served";"Unknown";"";"VBN"
"257584";"Q";"de:01004:66248::1";"de:01004:66248";"Neumünster-Einfeld Bahnhof";"54,129276";"9,99643";"00000000";"-";"-";"-";"Served";"Unknown";"";"VBN"
"257585";"Q";"de:01004:66248::2";"de:01004:66248";"Neumünster-Einfeld Bahnhof";"54,129276";"9,99643";"00000000";"-";"-";"-";"Served";"Unknown";"";"VBN"
"257586";"Q";"de:01004:66248::3";"de:01004:66248";"Neumünster-Einfeld Bahnhof";"54,129276";"9,99643";"00000000";"-";"-";"-";"Served";"Unknown";"";"VBN"
"257587";"Q";"de:01004:66248::4";"de:01004:66248";"Neumünster-Einfeld Bahnhof";"54,129276";"9,99643";"00000000";"-";"-";"-";"Served";"Unknown";"";"VBN"
"257588";"S";"de:01004:66249";"de:01004:66249";"Neumünster-Einfeld Gymnasium";"54,128529";"9,98669";"01004000";"Neumünster";"";"";"Served";"Unknown";"";"VBN"
"257589";"Q";"de:01004:66249::1";"de:01004:66249";"Neumünster-Einfeld Gymnasium";"54,128464";"9,98673";"00000000";"-";"-";"-";"Served";"Unknown";"";"VBN"
"257590";"S";"de:01004:66250";"de:01004:66250";"Neumünster-Einfeld Hans-Böckler-Allee";"54,125363";"9,99058";"01004000";"Neumünster";"";"";"Served";"Unknown";"";"VBN"
"257591";"Q";"de:01004:66250::1";"de:01004:66250";"Neumünster-Einfeld Hans-Böckler-Allee";"54,125265";"9,990931";"00000000";"-";"-";"-";"Served";"Unknown";"";"VBN"
"257592";"Q";"de:01004:66250::2";"de:01004:66250";"Neumünster-Einfeld Hans-Böckler-Allee";"54,125613";"9,989472";"00000000";"-";"-";"-";"Served";"Unknown";"";"VBN"
"257593";"S";"de:01004:66251";"de:01004:66251";"Neumünster-Einfeld Krückenkrug";"54,114619";"9,994029";"01004000";"Neumünster";"";"";"Served";"Unknown";"";"VBN"
"257594";"Q";"de:01004:66251::1";"de:01004:66251";"Neumünster-Einfeld Krückenkrug";"54,114599";"9,992997";"00000000";"-";"-";"-";"Served";"Unknown";"";"VBN"
"257595";"Q";"de:01004:66251::2";"de:01004:66251";"Neumünster-Einfeld Krückenkrug";"54,114887";"9,994219";"00000000";"-";"-";"-";"Served";"Unknown";"";"VBN"
"257596";"Q";"de:01004:66251::3";"de:01004:66251";"Neumünster-Einfeld Krückenkrug";"54,114502";"9,992863";"00000000";"-";"-";"-";"Served";"Unknown";"";"VBN"
"257597";"Q";"de:01004:66251::4";"de:01004:66251";"Neumünster-Einfeld Krückenkrug";"54,114054";"9,993801";"00000000";"-";"-";"-";"Served";"Unknown";"";"VBN"
"257598";"S";"de:01004:66252";"de:01004:66252";"Neumünster-Gadeland Kirche";"54,048887";"10,024092";"01004000";"Neumünster";"";"";"Served";"Unknown";"";"VBN"
"257599";"Q";"de:01004:66252::1";"de:01004:66252";"Neumünster-Gadeland Kirche";"54,048887";"10,024092";"00000000";"-";"-";"-";"Served";"Unknown";"";"VBN"
"257600";"Q";"de:01004:66252::2";"de:01004:66252";"Neumünster-Gadeland Kirche";"54,048887";"10,024092";"00000000";"-";"-";"-";"Served";"Unknown";"";"VBN"
"257601";"S";"de:01004:66253";"de:01004:66253";"Neumünster-Gadeland Kummerfelder Straße";"54,052921";"10,020671";"01004000";"Neumünster";"";"";"Served";"Unknown";"";"VBN"
"257602";"Q";"de:01004:66253::1";"de:01004:66253";"Neumünster-Gadeland Kummerfelder Straße";"54,052097";"10,020662";"00000000";"-";"-";"-";"Served";"Unknown";"";"VBN"
"257603";"Q";"de:01004:66253::2";"de:01004:66253";"Neumünster-Gadeland Kummerfelder Straße";"54,052903";"10,021754";"00000000";"-";"-";"-";"Served";"Unknown";"";"VBN"
"257604";"Q";"de:01004:66253::3";"de:01004:66253";"Neumünster-Gadeland Kummerfelder Straße";"54,053486";"10,020331";"00000000";"-";"-";"-";"Served";"Unknown";"";"VBN"
"257605";"S";"de:01004:66254";"de:01004:66254";"Neumünster-Wittorf Mitte";"54,053575";"9,969156";"01004000";"Neumünster";"";"";"Served";"Unknown";"";"VBN"
"257606";"Q";"de:01004:66254::1";"de:01004:66254";"Neumünster-Wittorf Mitte";"54,053491";"9,969017";"00000000";"-";"-";"-";"Served";"Unknown";"";"VBN"
"257607";"Q";"de:01004:66254::2";"de:01004:66254";"Neumünster-Wittorf Mitte";"54,053659";"9,969296";"00000000";"-";"-";"-";"Served";"Unknown";"";"VBN"
"257608";"S";"de:01004:67164";"de:01004:67164";"Neumünster Rintelenstraße";"54,092044";"9,968471";"01004000";"Neumünster";"";"";"Served";"Unknown";"";"VBN"
"257609";"Q";"de:01004:67164::1";"de:01004:67164";"Neumünster Rintelenstraße";"54,092109";"9,968289";"00000000";"-";"-";"-";"Served";"Unknown";"";"VBN"
"257610";"Q";"de:01004:67164::2";"de:01004:67164";"Neumünster Rintelenstraße";"54,092016";"9,968629";"00000000";"-";"-";"-";"Served";"Unknown";"";"VBN"
"257611";"S";"de:01004:67274";"de:01004:67274";"Neumünster Stoverseegen";"54,099974";"9,9654";"01004000";"Neumünster";"";"";"Served";"Unknown";"";"VBN"
"257612";"Q";"de:01004:67274::1";"de:01004:67274";"Neumünster Stoverseegen";"54,099919";"9,965829";"00000000";"-";"-";"-";"Served";"Unknown";"";"VBN"
"257613";"Q";"de:01004:67274::2";"de:01004:67274";"Neumünster Stoverseegen";"54,099913";"9,966764";"00000000";"-";"-";"-";"Served";"Unknown";"";"VBN"